{
"type": "FeatureCollection",
"name": "asentamientos_va",
"crs": { "type": "name", "properties": { "name": "urn:ogc:def:crs:OGC:1.3:CRS84" } },
"features": [
{ "type": "Feature", "properties": { "renabap_id": 3823, "nombre_bar": "Sin Nombre", "provincia": "Chaco", "departamen": "Mayor Luis J. Fontana", "localidad": "Villa Ángela", "cantidad_f": 17.0, "cantidad_v": 15.0, "decada_de_": "Década 2000", "anio_de_cr": null, "energia_el": "Conexión formal a la red con medidor domiciliario con factura", "efluentes_": "Desagüe sólo a pozo negro/ciego u hoyo", "agua_corri": "Camión cisterna", "cocina": "Gas en garrafa", "calefaccio": "Leña o carbón", "situacion_": "Ninguna seguridad en la tenencia", "clasificac": "Asentamiento", "superficie": 7959 }, "geometry": { "type": "MultiPolygon", "coordinates": [ [ [ [ -60.743385567685515, -27.585645885152811 ], [ -60.743391456113521, -27.58499959803488 ], [ -60.743094168995626, -27.584981283842733 ], [ -60.742693229694289, -27.584841371615653 ], [ -60.742688087772898, -27.584573 ], [ -60.742086915502156, -27.58454625676853 ], [ -60.742070118122228, -27.584743628384217 ], [ -60.742318121397318, -27.584935 ], [ -60.742226063973789, -27.585144631659372 ], [ -60.743385567685515, -27.585645885152811 ] ] ] ] } },
{ "type": "Feature", "properties": { "renabap_id": 3824, "nombre_bar": "Las Quintas", "provincia": "Chaco", "departamen": "Mayor Luis J. Fontana", "localidad": "Villa Ángela", "cantidad_f": 55.0, "cantidad_v": 50.0, "decada_de_": "Década 1990", "anio_de_cr": null, "energia_el": "Conexión irregular a la red", "efluentes_": "Desagüe sólo a pozo negro/ciego u hoyo", "agua_corri": "Camión cisterna", "cocina": "Gas en garrafa", "calefaccio": "Inexistente", "situacion_": "Boleto de compra-venta", "clasificac": "Asentamiento", "superficie": 72468 }, "geometry": { "type": "MultiPolygon", "coordinates": [ [ [ [ -60.741148070960669, -27.586992070960669 ], [ -60.741204477932094, -27.585072915455907 ], [ -60.741452819705017, -27.585217786438172 ], [ -60.74159076713098, -27.584846437979461 ], [ -60.740421554727014, -27.584339206456342 ], [ -60.740485127729201, -27.583987914847103 ], [ -60.738581163936502, -27.583033987842541 ], [ -60.738605512029316, -27.585144863159069 ], [ -60.739330185933333, -27.585204197952415 ], [ -60.739362886462843, -27.585771985807806 ], [ -60.739536929039261, -27.585767070960635 ], [ -60.739729858078576, -27.586893042576381 ], [ -60.741148070960669, -27.586992070960669 ] ] ] ] } },
{ "type": "Feature", "properties": { "renabap_id": 3825, "nombre_bar": "Sargento Cabral", "provincia": "Chaco", "departamen": "Mayor Luis J. Fontana", "localidad": "Villa Ángela", "cantidad_f": 59.0, "cantidad_v": 54.0, "decada_de_": "Década 2010", "anio_de_cr": 2010.0, "energia_el": "Conexión irregular a la red", "efluentes_": "Desagüe sólo a pozo negro/ciego u hoyo", "agua_corri": "Conexión irregular a la red de agua", "cocina": "Gas en garrafa", "calefaccio": "Leña o carbón", "situacion_": "Boleto de compra-venta", "clasificac": "Asentamiento", "superficie": 107263 }, "geometry": { "type": "MultiPolygon", "coordinates": [ [ [ [ -60.734381384630566, -27.586574006974811 ], [ -60.734374472607684, -27.585514163464619 ], [ -60.729452331803358, -27.585528522876555 ], [ -60.729467771436916, -27.586620660632065 ], [ -60.728375008912337, -27.586630103199042 ], [ -60.728347595313309, -27.587065103889163 ], [ -60.7388777186437, -27.586954584137214 ], [ -60.738855399849015, -27.586485889448753 ], [ -60.738485422906294, -27.586535677529209 ], [ -60.734381384630566, -27.586574006974811 ] ] ] ] } },
{ "type": "Feature", "properties": { "renabap_id": 3826, "nombre_bar": "Sargento Cabral", "provincia": "Chaco", "departamen": "Mayor Luis J. Fontana", "localidad": "Villa Ángela", "cantidad_f": 138.0, "cantidad_v": 125.0, "decada_de_": "Década 1990", "anio_de_cr": null, "energia_el": "Conexión regular a la red con medidor domiciliario pero sin factura", "efluentes_": "Desagüe sólo a pozo negro/ciego u hoyo", "agua_corri": "Camión cisterna", "cocina": "Gas en garrafa", "calefaccio": "Energía eléctrica", "situacion_": "Boleto de compra-venta", "clasificac": "Asentamiento", "superficie": 31657 }, "geometry": { "type": "MultiPolygon", "coordinates": [ [ [ [ -60.734301507317312, -27.580909624437279 ], [ -60.731890219075787, -27.579965367738922 ], [ -60.731806952803289, -27.579960217247841 ], [ -60.731804377557751, -27.580085545864168 ], [ -60.730642083403566, -27.579651187782932 ], [ -60.730447050405509, -27.579631574974321 ], [ -60.730409452889724, -27.580322468453943 ], [ -60.731916829946385, -27.580931943231977 ], [ -60.731914932389593, -27.580631324991149 ], [ -60.734316958790572, -27.581697649572821 ], [ -60.734301507317312, -27.580909624437279 ] ] ] ] } },
{ "type": "Feature", "properties": { "renabap_id": 3827, "nombre_bar": "Sin Nombre", "provincia": "Chaco", "departamen": "Mayor Luis J. Fontana", "localidad": "Villa Ángela", "cantidad_f": 154.0, "cantidad_v": 140.0, "decada_de_": "Década 2000", "anio_de_cr": null, "energia_el": "Conexión regular a la red con medidor domiciliario pero sin factura", "efluentes_": "Desagüe sólo a pozo negro/ciego u hoyo", "agua_corri": "Conexión irregular a la red de agua", "cocina": "Gas en garrafa", "calefaccio": "Inexistente", "situacion_": "Ninguna seguridad en la tenencia", "clasificac": "Asentamiento", "superficie": 56477 }, "geometry": { "type": "MultiPolygon", "coordinates": [ [ [ [ -60.743279, -27.572467 ], [ -60.745606, -27.572486 ], [ -60.745632, -27.570245 ], [ -60.743295, -27.570282 ], [ -60.743279, -27.572467 ] ] ] ] } },
{ "type": "Feature", "properties": { "renabap_id": 3828, "nombre_bar": "Quinta 5", "provincia": "Chaco", "departamen": "Mayor Luis J. Fontana", "localidad": "Villa Ángela", "cantidad_f": 94.0, "cantidad_v": 85.0, "decada_de_": "Década 2010", "anio_de_cr": 2014.0, "energia_el": "Conexión irregular a la red", "efluentes_": "Desagüe a cámara séptica y pozo ciego", "agua_corri": "Conexión irregular a la red de agua", "cocina": "Gas en garrafa", "calefaccio": "Inexistente", "situacion_": "Ninguna seguridad en la tenencia", "clasificac": "Asentamiento", "superficie": 46671 }, "geometry": { "type": "MultiPolygon", "coordinates": [ [ [ [ -60.740722, -27.56404 ], [ -60.740761, -27.565750898034878 ], [ -60.743223885371158, -27.565790350218279 ], [ -60.743197662445354, -27.564046777074203 ], [ -60.740722, -27.56404 ] ] ] ] } },
{ "type": "Feature", "properties": { "renabap_id": 3829, "nombre_bar": "Barrio Avenida", "provincia": "Chaco", "departamen": "Mayor Luis J. Fontana", "localidad": "Villa Ángela", "cantidad_f": 44.0, "cantidad_v": 40.0, "decada_de_": "Década 2000", "anio_de_cr": null, "energia_el": "Conexión regular a la red con medidor domiciliario pero sin factura", "efluentes_": "Desagüe a cámara séptica y pozo ciego", "agua_corri": "Conexión irregular a la red de agua", "cocina": "Gas en garrafa", "calefaccio": "Inexistente", "situacion_": "Boleto de compra-venta", "clasificac": "Asentamiento", "superficie": 26863 }, "geometry": { "type": "MultiPolygon", "coordinates": [ [ [ [ -60.736910433406095, -27.570144 ], [ -60.738375296943168, -27.570135324235753 ], [ -60.738336, -27.567969 ], [ -60.737275730349296, -27.567981109170233 ], [ -60.737174, -27.568909 ], [ -60.736869, -27.568945 ], [ -60.736878593886409, -27.569218296943188 ], [ -60.737757027292538, -27.569197484716131 ], [ -60.737791081877667, -27.569724703056739 ], [ -60.737316621178984, -27.569742730349304 ], [ -60.737215727074201, -27.569562484716119 ], [ -60.736882675764164, -27.569560836244491 ], [ -60.736910433406095, -27.570144 ] ] ] ] } },
{ "type": "Feature", "properties": { "renabap_id": 3830, "nombre_bar": "Las Flores", "provincia": "Chaco", "departamen": "Mayor Luis J. Fontana", "localidad": "Villa Ángela", "cantidad_f": 110.0, "cantidad_v": 100.0, "decada_de_": "Década 2010", "anio_de_cr": 2013.0, "energia_el": "No tiene conexión eléctrica", "efluentes_": "Desagüe a cámara séptica y pozo ciego", "agua_corri": "Conexión irregular a la red de agua", "cocina": "Gas en garrafa", "calefaccio": "Leña o carbón", "situacion_": "Ninguna seguridad en la tenencia", "clasificac": "Asentamiento", "superficie": 79213 }, "geometry": { "type": "MultiPolygon", "coordinates": [ [ [ [ -60.722766, -27.551292 ], [ -60.722765, -27.554155 ], [ -60.723716, -27.554245 ], [ -60.724349, -27.554683 ], [ -60.725077, -27.554804 ], [ -60.725013, -27.551237 ], [ -60.724892, -27.551239 ], [ -60.722766, -27.551292 ] ] ] ] } },
{ "type": "Feature", "properties": { "renabap_id": 3831, "nombre_bar": "Sin Nombre", "provincia": "Chaco", "departamen": "Mayor Luis J. Fontana", "localidad": "Villa Ángela", "cantidad_f": 15.0, "cantidad_v": 14.0, "decada_de_": "Década 1990", "anio_de_cr": null, "energia_el": "Conexión irregular a la red", "efluentes_": "Desagüe a cámara séptica y pozo ciego", "agua_corri": "Camión cisterna", "cocina": "Gas en garrafa", "calefaccio": "Inexistente", "situacion_": "Ninguna seguridad en la tenencia", "clasificac": "Asentamiento", "superficie": 6501 }, "geometry": { "type": "MultiPolygon", "coordinates": [ [ [ [ -60.717379455729137, -27.556724104166616 ], [ -60.718583007812441, -27.556649864583303 ], [ -60.718565023437471, -27.556183119791616 ], [ -60.717366343749951, -27.556203015624973 ], [ -60.717379455729137, -27.556724104166616 ] ] ] ] } },
{ "type": "Feature", "properties": { "renabap_id": 3832, "nombre_bar": "Villa María", "provincia": "Chaco", "departamen": "Mayor Luis J. Fontana", "localidad": "Villa Ángela", "cantidad_f": 83.0, "cantidad_v": 75.0, "decada_de_": "Década 2000", "anio_de_cr": null, "energia_el": "Conexión formal a la red con medidor domiciliario con factura", "efluentes_": "Desagüe sólo a pozo negro/ciego u hoyo", "agua_corri": "Conexión irregular a la red de agua", "cocina": "Gas en garrafa", "calefaccio": "Energía eléctrica", "situacion_": "Boleto de compra-venta", "clasificac": "Asentamiento", "superficie": 38852 }, "geometry": { "type": "MultiPolygon", "coordinates": [ [ [ [ -60.717556031510398, -27.56490175468744 ], [ -60.719977592180598, -27.56486004403251 ], [ -60.720554621830409, -27.564845611967691 ], [ -60.720561788540422, -27.56384655311366 ], [ -60.720670709052513, -27.563842986489121 ], [ -60.720682370586204, -27.562989315614551 ], [ -60.719860733496311, -27.563015491039689 ], [ -60.719884750407878, -27.56387659369603 ], [ -60.719313477897991, -27.563922600305141 ], [ -60.717560113281209, -27.563981622656183 ], [ -60.717556031510398, -27.56490175468744 ] ] ] ] } },
{ "type": "Feature", "properties": { "renabap_id": 3833, "nombre_bar": "Cacique Catán", "provincia": "Chaco", "departamen": "Mayor Luis J. Fontana", "localidad": "Villa Ángela", "cantidad_f": 242.0, "cantidad_v": 220.0, "decada_de_": "Década 1990", "anio_de_cr": null, "energia_el": "Conexión formal a la red con medidor domiciliario con factura", "efluentes_": "Desagüe sólo a pozo negro/ciego u hoyo", "agua_corri": "Camión cisterna", "cocina": "Gas en garrafa", "calefaccio": "Leña o carbón", "situacion_": "Boleto de compra-venta", "clasificac": "Asentamiento", "superficie": 119642 }, "geometry": { "type": "MultiPolygon", "coordinates": [ [ [ [ -60.71077, -27.592498 ], [ -60.710687933980523, -27.590384473786386 ], [ -60.708758, -27.590354 ], [ -60.708640355339767, -27.589325710679564 ], [ -60.706733341747565, -27.589320184465993 ], [ -60.706765, -27.592707 ], [ -60.71077, -27.592498 ] ] ] ] } },
{ "type": "Feature", "properties": { "renabap_id": 3834, "nombre_bar": "Lote 20", "provincia": "Chaco", "departamen": "Mayor Luis J. Fontana", "localidad": "Villa Ángela", "cantidad_f": 330.0, "cantidad_v": 300.0, "decada_de_": "Década 2000", "anio_de_cr": null, "energia_el": "Conexión formal a la red con medidor domiciliario con factura", "efluentes_": "Desagüe a cámara séptica y pozo ciego", "agua_corri": "Bomba de agua de pozo comunitaria", "cocina": "Gas en garrafa", "calefaccio": "Leña o carbón", "situacion_": "Ninguna seguridad en la tenencia", "clasificac": "Asentamiento", "superficie": 1017358 }, "geometry": { "type": "MultiPolygon", "coordinates": [ [ [ [ -60.6952, -27.557706 ], [ -60.694421, -27.557865 ], [ -60.694412, -27.558047 ], [ -60.693997, -27.558063 ], [ -60.693087, -27.55739 ], [ -60.692371, -27.557385 ], [ -60.692359, -27.557735 ], [ -60.693003, -27.55773 ], [ -60.693034, -27.558438 ], [ -60.69245, -27.558454 ], [ -60.692455, -27.558795 ], [ -60.691567, -27.558838 ], [ -60.691521, -27.559008 ], [ -60.689865378022233, -27.558850687135369 ], [ -60.688575514192074, -27.563654205676823 ], [ -60.687323231343299, -27.568682386194034 ], [ -60.687161382462698, -27.569558274253737 ], [ -60.68671, -27.569613 ], [ -60.686567143190281, -27.570953030783567 ], [ -60.686659968283564, -27.570953824160433 ], [ -60.687024128264909, -27.570899874533566 ], [ -60.68717725, -27.570964138059708 ], [ -60.695377588646274, -27.570851102838397 ], [ -60.69535696548509, -27.566662448694029 ], [ -60.695261691484667, -27.561140308515249 ], [ -60.6952, -27.557706 ] ] ], [ [ [ -60.691962, -27.5564337 ], [ -60.690478, -27.556464 ], [ -60.690111, -27.557882 ], [ -60.690305, -27.557931 ], [ -60.690668, -27.557866 ], [ -60.691974953107419, -27.557388135994788 ], [ -60.691962, -27.5564337 ] ] ], [ [ [ -60.694116, -27.556458 ], [ -60.693844, -27.556306 ], [ -60.693818, -27.555533 ], [ -60.693021, -27.555535 ], [ -60.693011, -27.554759 ], [ -60.691183, -27.554776 ], [ -60.691012, -27.554823 ], [ -60.69082, -27.554933 ], [ -60.690655, -27.555626 ], [ -60.692929, -27.555576 ], [ -60.6929724, -27.5569919 ], [ -60.694112, -27.556658 ], [ -60.694116, -27.556458 ] ] ] ] } },
{ "type": "Feature", "properties": { "renabap_id": 5084, "nombre_bar": "Sur", "provincia": "Chaco", "departamen": "Mayor Luis J. Fontana", "localidad": "Villa Ángela", "cantidad_f": 66.0, "cantidad_v": 60.0, "decada_de_": "Década 2010", "anio_de_cr": 2013.0, "energia_el": "Conexión formal a la red con medidor domiciliario con factura", "efluentes_": "Desagüe sólo a pozo negro/ciego u hoyo", "agua_corri": "Camión cisterna", "cocina": "Gas en garrafa", "calefaccio": "Inexistente", "situacion_": "Otro tipo de seguridad en la tenencia", "clasificac": "Asentamiento", "superficie": 35309 }, "geometry": { "type": "MultiPolygon", "coordinates": [ [ [ [ -60.712708908992362, -27.590381239705774 ], [ -60.711968620245976, -27.590422432636537 ], [ -60.710750966437594, -27.590424472257656 ], [ -60.710741016617135, -27.591751562682873 ], [ -60.711999214562795, -27.591766542954336 ], [ -60.712005333426156, -27.59217446717825 ], [ -60.712601922603625, -27.592164269072647 ], [ -60.712588665066349, -27.592472251861704 ], [ -60.713283156057564, -27.592478370725061 ], [ -60.713287235299802, -27.592229536948473 ], [ -60.712848642022706, -27.592241417932467 ], [ -60.712843617706291, -27.591527907283343 ], [ -60.71275999324039, -27.591529946904462 ], [ -60.712708908992362, -27.590381239705774 ] ] ] ] } }
]
}
