{
"type": "FeatureCollection",
"name": "circuitos_electoral_va",
"crs": { "type": "name", "properties": { "name": "urn:ogc:def:crs:OGC:1.3:CRS84" } },
"features": [
{ "type": "Feature", "properties": { "ID": 87, "CIRC": "0077", "INDRA": "060110077", "PROV": "06", "DEPTO": "011", "PROVINCIA": "CHACO", "DEPARTAMEN": "Mayor L.J.Fontana", "CIRCUITO": "Villa Angela", "MUNICIPIO": "Villa Angela" }, "geometry": { "type": "MultiPolygon", "coordinates": [ [ [ [ -60.791020603485947, -27.642594938380547 ], [ -60.816312706013171, -27.643154707048925 ], [ -60.736526930485333, -27.479371310287323 ], [ -60.73030611729898, -27.554770006433831 ], [ -60.730344361188706, -27.564050523673977 ], [ -60.729082312827764, -27.564127011453429 ], [ -60.72913011768987, -27.568075693067605 ], [ -60.729155613616356, -27.571568634995906 ], [ -60.791020603485947, -27.642594938380547 ] ] ] ] } },
{ "type": "Feature", "properties": { "ID": 88, "CIRC": "0078", "INDRA": "060110078", "PROV": "06", "DEPTO": "011", "PROVINCIA": "CHACO", "DEPARTAMEN": "Mayor L.J.Fontana", "CIRCUITO": "Villa Angela", "MUNICIPIO": "Villa Angela" }, "geometry": { "type": "MultiPolygon", "coordinates": [ [ [ [ -60.728301500079041, -27.463631630226118 ], [ -60.715572658781937, -27.463810101711502 ], [ -60.67337690045099, -27.464460247836833 ], [ -60.620240113517369, -27.465319215454073 ], [ -60.622257567850696, -27.681532565921088 ], [ -60.729155613616356, -27.571568634995906 ], [ -60.72913011768987, -27.568075693067605 ], [ -60.729082312827764, -27.564127011453429 ], [ -60.730344361188706, -27.564050523673977 ], [ -60.73030611729898, -27.554770006433831 ], [ -60.736526930485333, -27.479371310287323 ], [ -60.728301500079041, -27.463631630226118 ] ] ] ] } },
{ "type": "Feature", "properties": { "ID": 89, "CIRC": "0079", "INDRA": "060110079", "PROV": "06", "DEPTO": "011", "PROVINCIA": "CHACO", "DEPARTAMEN": "Mayor L.J.Fontana", "CIRCUITO": "Villa Angela", "MUNICIPIO": "Villa Angela" }, "geometry": { "type": "MultiPolygon", "coordinates": [ [ [ [ -60.621696657468036, -27.739051376068858 ], [ -60.66636552066791, -27.739102367921809 ], [ -60.722953729498947, -27.739038628105583 ], [ -60.723183192837325, -27.719355772859984 ], [ -60.738429756874737, -27.719317528970265 ], [ -60.749596972674667, -27.719279285080521 ], [ -60.755320808170296, -27.719266537117267 ], [ -60.762343342421204, -27.719244228181577 ], [ -60.770426854809287, -27.642135714707806 ], [ -60.791020603485947, -27.642594938380547 ], [ -60.729155613616356, -27.571568634995906 ], [ -60.622257567850696, -27.681532565921088 ], [ -60.621696657468036, -27.739051376068858 ] ] ] ] } }
]
}
