{"type": "FeatureCollection", "name": "mesas_electores_x_escuela_va", "crs": {"type": "name", "properties": {"name": "urn:ogc:def:crs:OGC:1.3:CRS84"}}, "features": [{"type": "Feature", "properties": {"gid": 39487, "cueanexo": "220082800", "provincia": "Chaco", "departamen": "MAYOR LUIS J FONTANA", "localidad": "VILLA ANGELA", "nombre": "E.E.E. Nº 8 - CLAUDIO ZAPICO", "domicilio": "PASAJE S/NOMBRE  SAN CAYETANO MZ.34-Bº SAN CAYETANO", "cod_postal": "H3540", "telefono": "429964", "email": "eeen8@hotmail.com", "circuito": 79.0, "CuentaDeNU": 6.0, "SumaDeCuen": 2076.0, "departamento": "MAYOR LUIS J FONTANA", "jurisdiccion": "Chaco", "sector": "Estatal", "ambito": "Urbano", "modcomun": 0, "modespecial": 1, "modadultos": 0, "nvcjmaternal": 0, "nvcjinfantes": 0, "nvcprimario": 0, "nvcsecundario": 0, "nvcsecundinet": 0, "nvcsnu": 0, "nvcsnuinet": 0, "nvcsnucursos": 0, "nvceductempr": 1, "nvejinfantes": 1, "nveprimario": 1, "nvesecundario": 1, "nvaprimario": 0, "nvasecundario": 0, "nvaformprofes": 0, "nvaformprofesinet": 0, "nvaalfabetiz": 0, "nvhinicial": 0, "nvhprimario": 0, "nvhsecundario": 0, "tallerartist": 0, "servcomplem": 0, "nveadultos": 0, "fuente_padron": "Padrón Oficial de Establecimientos Educativos 2025"}, "geometry": {"type": "MultiPoint", "coordinates": [[-60.72197532624236, -27.566782588341617]]}}, {"type": "Feature", "properties": {"gid": 39763, "cueanexo": "220101600", "provincia": "Chaco", "departamen": "MAYOR LUIS J FONTANA", "localidad": "VILLA ANGELA", "nombre": "INSTITUTO DE EDUCACION SUPERIOR - VILLA ANGELA", "domicilio": "RIVADAVIA", "cod_postal": "H3540", "telefono": "430808", "email": "institutovillaangela@hotmail.com", "circuito": 78.0, "CuentaDeNU": 8.0, "SumaDeCuen": 2784.0, "departamento": "MAYOR LUIS J FONTANA", "jurisdiccion": "Chaco", "sector": "Estatal", "ambito": "Urbano", "modcomun": 1, "modespecial": 0, "modadultos": 0, "nvcjmaternal": 0, "nvcjinfantes": 0, "nvcprimario": 0, "nvcsecundario": 0, "nvcsecundinet": 0, "nvcsnu": 1, "nvcsnuinet": 0, "nvcsnucursos": 0, "nvceductempr": 0, "nvejinfantes": 0, "nveprimario": 0, "nvesecundario": 0, "nvaprimario": 0, "nvasecundario": 0, "nvaformprofes": 0, "nvaformprofesinet": 0, "nvaalfabetiz": 0, "nvhinicial": 0, "nvhprimario": 0, "nvhsecundario": 0, "tallerartist": 0, "servcomplem": 1, "nveadultos": 0, "fuente_padron": "Padrón Oficial de Establecimientos Educativos 2025"}, "geometry": {"type": "MultiPoint", "coordinates": [[-60.714520526221676, -27.56702450139357]]}}, {"type": "Feature", "properties": {"gid": 39768, "cueanexo": "220101700", "provincia": "Chaco", "departamen": "MAYOR LUIS J FONTANA", "localidad": "VILLA ANGELA", "nombre": "E.E.S. Nº 14 - GRAL. MANUEL BELGRANO (CEP 14)", "domicilio": "COLON 586", "cod_postal": "H3540", "telefono": "430322", "email": "ees14@hotmail.com.ar", "circuito": 78.0, "CuentaDeNU": 8.0, "SumaDeCuen": 2793.0, "departamento": "MAYOR LUIS J FONTANA", "jurisdiccion": "Chaco", "sector": "Estatal", "ambito": "Urbano", "modcomun": 1, "modespecial": 0, "modadultos": 0, "nvcjmaternal": 0, "nvcjinfantes": 0, "nvcprimario": 0, "nvcsecundario": 1, "nvcsecundinet": 0, "nvcsnu": 0, "nvcsnuinet": 0, "nvcsnucursos": 0, "nvceductempr": 0, "nvejinfantes": 0, "nveprimario": 0, "nvesecundario": 0, "nvaprimario": 0, "nvasecundario": 0, "nvaformprofes": 0, "nvaformprofesinet": 0, "nvaalfabetiz": 0, "nvhinicial": 0, "nvhprimario": 0, "nvhsecundario": 0, "tallerartist": 0, "servcomplem": 0, "nveadultos": 0, "fuente_padron": "Padrón Oficial de Establecimientos Educativos 2025"}, "geometry": {"type": "MultiPoint", "coordinates": [[-60.70563913203583, -27.573282136106357]]}}, {"type": "Feature", "properties": {"gid": 39772, "cueanexo": "220102000", "provincia": "Chaco", "departamen": "MAYOR LUIS J FONTANA", "localidad": "VILLA ANGELA", "nombre": "E.E.S. Nº 24 - NELIDA SALOM DE FRANCHINI (CEP Nº 24)", "domicilio": "LUIS BRAILE Y LAVALLE  VILLA MARIA Bº VILLA MARIA", "cod_postal": "H3540", "telefono": "420104", "email": "ees24_va@yahoo.com.ar", "circuito": 78.0, "CuentaDeNU": 7.0, "SumaDeCuen": 2437.0, "departamento": "MAYOR LUIS J FONTANA", "jurisdiccion": "Chaco", "sector": "Estatal", "ambito": "Urbano", "modcomun": 1, "modespecial": 0, "modadultos": 0, "nvcjmaternal": 0, "nvcjinfantes": 0, "nvcprimario": 0, "nvcsecundario": 1, "nvcsecundinet": 0, "nvcsnu": 0, "nvcsnuinet": 0, "nvcsnucursos": 0, "nvceductempr": 0, "nvejinfantes": 0, "nveprimario": 0, "nvesecundario": 0, "nvaprimario": 0, "nvasecundario": 0, "nvaformprofes": 0, "nvaformprofesinet": 0, "nvaalfabetiz": 0, "nvhinicial": 0, "nvhprimario": 0, "nvhsecundario": 0, "tallerartist": 0, "servcomplem": 0, "nveadultos": 0, "fuente_padron": "Padrón Oficial de Establecimientos Educativos 2025", "nombre_padron": "E.E.S. Nº 24 - NELIDA SALOM DE FRANCHINI (CEP 24)"}, "geometry": {"type": "MultiPoint", "coordinates": [[-60.715961617052315, -27.567076358988455]]}}, {"type": "Feature", "properties": {"gid": 39801, "cueanexo": "220103400", "provincia": "Chaco", "departamen": "MAYOR LUIS J FONTANA", "localidad": "VILLA ANGELA", "nombre": "E.E.T. Nº 25", "domicilio": "ESPINOZA", "cod_postal": "H3540", "telefono": "423515", "email": "eet25va@yahoo.com.ar", "circuito": 77.0, "CuentaDeNU": 7.0, "SumaDeCuen": 2367.0, "departamento": "MAYOR LUIS J FONTANA", "jurisdiccion": "Chaco", "sector": "Estatal", "ambito": "Urbano", "modcomun": 1, "modespecial": 0, "modadultos": 0, "nvcjmaternal": 0, "nvcjinfantes": 0, "nvcprimario": 0, "nvcsecundario": 1, "nvcsecundinet": 1, "nvcsnu": 0, "nvcsnuinet": 0, "nvcsnucursos": 0, "nvceductempr": 0, "nvejinfantes": 0, "nveprimario": 0, "nvesecundario": 0, "nvaprimario": 0, "nvasecundario": 0, "nvaformprofes": 0, "nvaformprofesinet": 0, "nvaalfabetiz": 0, "nvhinicial": 0, "nvhprimario": 0, "nvhsecundario": 0, "tallerartist": 0, "servcomplem": 0, "nveadultos": 0, "fuente_padron": "Padrón Oficial de Establecimientos Educativos 2025"}, "geometry": {"type": "MultiPoint", "coordinates": [[-60.7189846893551, -27.5830412179885]]}}, {"type": "Feature", "properties": {"gid": 39802, "cueanexo": "220103500", "provincia": "Chaco", "departamen": "MAYOR LUIS J FONTANA", "localidad": "VILLA ANGELA", "nombre": "E.E.S. Nº 9 - MAESTRO SARMIENTO (CEP Nº 9)", "domicilio": "RIVADAVIA Y LOS ANDES  VILLA MARIA BºVILLA MARIA", "cod_postal": "H3540", "telefono": "431033", "email": "ees9maestrosarmiento@hotmail.com", "circuito": 78.0, "CuentaDeNU": 7.0, "SumaDeCuen": 2436.0, "departamento": "MAYOR LUIS J FONTANA", "jurisdiccion": "Chaco", "sector": "Estatal", "ambito": "Urbano", "modcomun": 1, "modespecial": 0, "modadultos": 0, "nvcjmaternal": 0, "nvcjinfantes": 0, "nvcprimario": 0, "nvcsecundario": 1, "nvcsecundinet": 0, "nvcsnu": 0, "nvcsnuinet": 0, "nvcsnucursos": 0, "nvceductempr": 0, "nvejinfantes": 0, "nveprimario": 0, "nvesecundario": 0, "nvaprimario": 0, "nvasecundario": 0, "nvaformprofes": 0, "nvaformprofesinet": 0, "nvaalfabetiz": 0, "nvhinicial": 0, "nvhprimario": 0, "nvhsecundario": 0, "tallerartist": 0, "servcomplem": 1, "nveadultos": 0, "fuente_padron": "Padrón Oficial de Establecimientos Educativos 2025", "nombre_padron": "E.E.S. Nº 9 - MAESTRO SARMIENTO (CEP 9)"}, "geometry": {"type": "MultiPoint", "coordinates": [[-60.7141536734388, -27.566577456094084]]}}, {"type": "Feature", "properties": {"gid": 39895, "cueanexo": "220109000", "provincia": "Chaco", "departamen": "MAYOR LUIS J FONTANA", "localidad": "VILLA ANGELA", "nombre": "U.E.G.P Nº 61 (UEP Nº 61) EBEN EZER", "domicilio": "AV.URUGUAY", "cod_postal": "H3540", "telefono": "-431173", "email": "normadorsch@hotmail.com", "circuito": 79.0, "CuentaDeNU": 7.0, "SumaDeCuen": 2422.0, "departamento": "MAYOR LUIS J FONTANA", "jurisdiccion": "Chaco", "sector": "Privado", "ambito": "Urbano", "modcomun": 1, "modespecial": 0, "modadultos": 0, "nvcjmaternal": 0, "nvcjinfantes": 0, "nvcprimario": 1, "nvcsecundario": 0, "nvcsecundinet": 0, "nvcsnu": 0, "nvcsnuinet": 0, "nvcsnucursos": 0, "nvceductempr": 0, "nvejinfantes": 0, "nveprimario": 0, "nvesecundario": 0, "nvaprimario": 0, "nvasecundario": 0, "nvaformprofes": 0, "nvaformprofesinet": 0, "nvaalfabetiz": 0, "nvhinicial": 0, "nvhprimario": 0, "nvhsecundario": 0, "tallerartist": 0, "servcomplem": 0, "nveadultos": 0, "fuente_padron": "Padrón Oficial de Establecimientos Educativos 2025", "nombre_padron": "U.E.G.P. Nº 61 (UEP 61) EBEN EZER"}, "geometry": {"type": "MultiPoint", "coordinates": [[-60.71916161095241, -27.57373950483251]]}}, {"type": "Feature", "properties": {"gid": 39896, "cueanexo": "220109100", "provincia": "Chaco", "departamen": "MAYOR LUIS J FONTANA", "localidad": "VILLA ANGELA", "nombre": "U.E.G.P Nº 28 (UEP Nº 28) FELIX FRIAS", "domicilio": "Av.Kennedy y Maipú", "cod_postal": "H3540", "telefono": "420767", "email": "uep28@hotmail.com", "circuito": 79.0, "CuentaDeNU": 7.0, "SumaDeCuen": 2422.0, "departamento": "MAYOR LUIS J FONTANA", "jurisdiccion": "Chaco", "sector": "Privado", "ambito": "Urbano", "modcomun": 1, "modespecial": 0, "modadultos": 0, "nvcjmaternal": 0, "nvcjinfantes": 0, "nvcprimario": 1, "nvcsecundario": 0, "nvcsecundinet": 0, "nvcsnu": 0, "nvcsnuinet": 0, "nvcsnucursos": 0, "nvceductempr": 0, "nvejinfantes": 0, "nveprimario": 0, "nvesecundario": 0, "nvaprimario": 0, "nvasecundario": 0, "nvaformprofes": 0, "nvaformprofesinet": 0, "nvaalfabetiz": 0, "nvhinicial": 0, "nvhprimario": 0, "nvhsecundario": 0, "tallerartist": 0, "servcomplem": 0, "nveadultos": 0, "fuente_padron": "Padrón Oficial de Establecimientos Educativos 2025", "nombre_padron": "U.E.G.P. Nº 28 (UEP 28) FELIX FRIAS"}, "geometry": {"type": "MultiPoint", "coordinates": [[-60.723415770261205, -27.571953832717643]]}}, {"type": "Feature", "properties": {"gid": 40336, "cueanexo": "220138100", "provincia": "Chaco", "departamen": "MAYOR LUIS J FONTANA", "localidad": "VILLA ANGELA", "nombre": "E.E.P. Nº 1001 - LUIS LANDRISCINA", "domicilio": "LAVALLE Y MATHURIN", "cod_postal": "H3540", "telefono": "-429008", "email": "gracielapino@hotmail.com", "circuito": 78.0, "CuentaDeNU": 7.0, "SumaDeCuen": 2437.0, "departamento": "MAYOR LUIS J FONTANA", "jurisdiccion": "Chaco", "sector": "Estatal", "ambito": "Urbano", "modcomun": 1, "modespecial": 0, "modadultos": 0, "nvcjmaternal": 0, "nvcjinfantes": 0, "nvcprimario": 1, "nvcsecundario": 0, "nvcsecundinet": 0, "nvcsnu": 0, "nvcsnuinet": 0, "nvcsnucursos": 0, "nvceductempr": 0, "nvejinfantes": 0, "nveprimario": 0, "nvesecundario": 0, "nvaprimario": 0, "nvasecundario": 0, "nvaformprofes": 0, "nvaformprofesinet": 0, "nvaalfabetiz": 0, "nvhinicial": 0, "nvhprimario": 0, "nvhsecundario": 0, "tallerartist": 0, "servcomplem": 0, "nveadultos": 0, "fuente_padron": "Padrón Oficial de Establecimientos Educativos 2025"}, "geometry": {"type": "MultiPoint", "coordinates": [[-60.71604635794707, -27.565368449733647]]}}, {"type": "Feature", "properties": {"gid": 40337, "cueanexo": "220138200", "provincia": "Chaco", "departamen": "MAYOR LUIS J FONTANA", "localidad": "VILLA ANGELA", "nombre": "E.E.P. Nº 389 - DOCTOR EDUARDO R.BATTIONI", "domicilio": "PASTEUR 1073 GRAL.SAN MARTIN B° GRAL.SAN MARTIN", "cod_postal": "H3540", "telefono": "812606", "email": "eep389villaangelachaco@hotmail.com", "circuito": 78.0, "CuentaDeNU": 8.0, "SumaDeCuen": 2792.0, "departamento": "MAYOR LUIS J FONTANA", "jurisdiccion": "Chaco", "sector": "Estatal", "ambito": "Urbano", "modcomun": 1, "modespecial": 0, "modadultos": 0, "nvcjmaternal": 0, "nvcjinfantes": 0, "nvcprimario": 1, "nvcsecundario": 0, "nvcsecundinet": 0, "nvcsnu": 0, "nvcsnuinet": 0, "nvcsnucursos": 0, "nvceductempr": 0, "nvejinfantes": 0, "nveprimario": 0, "nvesecundario": 0, "nvaprimario": 0, "nvasecundario": 0, "nvaformprofes": 0, "nvaformprofesinet": 0, "nvaalfabetiz": 0, "nvhinicial": 0, "nvhprimario": 0, "nvhsecundario": 0, "tallerartist": 0, "servcomplem": 0, "nveadultos": 0, "fuente_padron": "Padrón Oficial de Establecimientos Educativos 2025"}, "geometry": {"type": "MultiPoint", "coordinates": [[-60.69848015880316, -27.577813826787487]]}}, {"type": "Feature", "properties": {"gid": 40338, "cueanexo": "220138300", "provincia": "Chaco", "departamen": "MAYOR LUIS J FONTANA", "localidad": "VILLA ANGELA", "nombre": "E.E.P. Nº 140 - REGIMIENTO DE PATRICIOS", "domicilio": "AV.DEL TRABAJO 1 SUR CIRC.I-SEC.VI-QTA.43-MZ.7", "cod_postal": "H3540", "telefono": "420859", "email": "eep140va@gmail.com", "circuito": 77.0, "CuentaDeNU": 7.0, "SumaDeCuen": 2369.0, "departamento": "MAYOR LUIS J FONTANA", "jurisdiccion": "Chaco", "sector": "Estatal", "ambito": "Urbano", "modcomun": 1, "modespecial": 0, "modadultos": 0, "nvcjmaternal": 0, "nvcjinfantes": 0, "nvcprimario": 1, "nvcsecundario": 0, "nvcsecundinet": 0, "nvcsnu": 0, "nvcsnuinet": 0, "nvcsnucursos": 0, "nvceductempr": 0, "nvejinfantes": 0, "nveprimario": 0, "nvesecundario": 0, "nvaprimario": 0, "nvasecundario": 0, "nvaformprofes": 0, "nvaformprofesinet": 0, "nvaalfabetiz": 0, "nvhinicial": 0, "nvhprimario": 0, "nvhsecundario": 0, "tallerartist": 0, "servcomplem": 0, "nveadultos": 0, "fuente_padron": "Padrón Oficial de Establecimientos Educativos 2025"}, "geometry": {"type": "MultiPoint", "coordinates": [[-60.71160837621755, -27.58469071530231]]}}, {"type": "Feature", "properties": {"gid": 40339, "cueanexo": "220138400", "provincia": "Chaco", "departamen": "MAYOR LUIS J FONTANA", "localidad": "VILLA ANGELA", "nombre": "E.E.P. Nº 82 - ALBERTO LARROQUE", "domicilio": "NECOCHEA  PUEBLO VIEJO MAIPU, HUNGRIA Y ALEM", "cod_postal": "H3540", "telefono": "429905", "email": "eep82albertolarroque@gmail.com", "circuito": 79.0, "CuentaDeNU": 7.0, "SumaDeCuen": 2430.0, "departamento": "MAYOR LUIS J FONTANA", "jurisdiccion": "Chaco", "sector": "Estatal", "ambito": "Urbano", "modcomun": 1, "modespecial": 0, "modadultos": 0, "nvcjmaternal": 0, "nvcjinfantes": 0, "nvcprimario": 1, "nvcsecundario": 0, "nvcsecundinet": 0, "nvcsnu": 0, "nvcsnuinet": 0, "nvcsnucursos": 0, "nvceductempr": 0, "nvejinfantes": 0, "nveprimario": 0, "nvesecundario": 0, "nvaprimario": 0, "nvasecundario": 0, "nvaformprofes": 0, "nvaformprofesinet": 0, "nvaalfabetiz": 0, "nvhinicial": 0, "nvhprimario": 0, "nvhsecundario": 0, "tallerartist": 0, "servcomplem": 0, "nveadultos": 0, "fuente_padron": "Padrón Oficial de Establecimientos Educativos 2025"}, "geometry": {"type": "MultiPoint", "coordinates": [[-60.7279449110998, -27.57196698185788]]}}, {"type": "Feature", "properties": {"gid": 40340, "cueanexo": "220138500", "provincia": "Chaco", "departamen": "MAYOR LUIS J FONTANA", "localidad": "VILLA ANGELA", "nombre": "E.E.P. Nº 11 - BARTOLOME MITRE", "domicilio": "BARTOLOME MITRE 1002  SEC.E-MZ.12-CH.12", "cod_postal": "H3540", "telefono": "421046", "email": "e.e.e.11@hotmail.com.ar", "circuito": 78.0, "CuentaDeNU": 8.0, "SumaDeCuen": 2792.0, "departamento": "MAYOR LUIS J FONTANA", "jurisdiccion": "Chaco", "sector": "Estatal", "ambito": "Urbano", "modcomun": 1, "modespecial": 0, "modadultos": 0, "nvcjmaternal": 0, "nvcjinfantes": 0, "nvcprimario": 1, "nvcsecundario": 0, "nvcsecundinet": 0, "nvcsnu": 0, "nvcsnuinet": 0, "nvcsnucursos": 0, "nvceductempr": 0, "nvejinfantes": 0, "nveprimario": 0, "nvesecundario": 0, "nvaprimario": 0, "nvasecundario": 0, "nvaformprofes": 0, "nvaformprofesinet": 0, "nvaalfabetiz": 0, "nvhinicial": 0, "nvhprimario": 0, "nvhsecundario": 0, "tallerartist": 0, "servcomplem": 0, "nveadultos": 0, "fuente_padron": "Padrón Oficial de Establecimientos Educativos 2025"}, "geometry": {"type": "MultiPoint", "coordinates": [[-60.712937859624375, -27.56811336367612]]}}, {"type": "Feature", "properties": {"gid": 40353, "cueanexo": "220139400", "provincia": "Chaco", "departamen": "MAYOR LUIS J FONTANA", "localidad": "VILLA ANGELA", "nombre": "E.E.P. Nº 663 - BRIGADIER GENERAL DON JUAN MANUEL DE ROSAS", "domicilio": "ALBERDI 1900 SARGENTO CABRAL Bº SGTO.CABRAL", "cod_postal": "H3540", "telefono": "421009", "email": "EGB663VILLAANGELACHACO@HOTMAIL.COM", "circuito": 79.0, "CuentaDeNU": 7.0, "SumaDeCuen": 2429.0, "departamento": "MAYOR LUIS J FONTANA", "jurisdiccion": "Chaco", "sector": "Estatal", "ambito": "Urbano", "modcomun": 1, "modespecial": 0, "modadultos": 0, "nvcjmaternal": 0, "nvcjinfantes": 0, "nvcprimario": 1, "nvcsecundario": 0, "nvcsecundinet": 0, "nvcsnu": 0, "nvcsnuinet": 0, "nvcsnucursos": 0, "nvceductempr": 0, "nvejinfantes": 0, "nveprimario": 0, "nvesecundario": 0, "nvaprimario": 0, "nvasecundario": 0, "nvaformprofes": 0, "nvaformprofesinet": 0, "nvaalfabetiz": 0, "nvhinicial": 0, "nvhprimario": 0, "nvhsecundario": 0, "tallerartist": 0, "servcomplem": 0, "nveadultos": 0, "fuente_padron": "Padrón Oficial de Establecimientos Educativos 2025"}, "geometry": {"type": "MultiPoint", "coordinates": [[-60.73314757879631, -27.57992467860596]]}}, {"type": "Feature", "properties": {"gid": 40599, "cueanexo": "220161300", "provincia": "Chaco", "departamen": "MAYOR LUIS J FONTANA", "localidad": "VILLA ANGELA", "nombre": "E.E.P. Nº 1021 - PEDRO ORTEGA", "domicilio": "MAIPU 1875 A.I.P.O. CHACRA 36-PC.5-BºAIPO", "cod_postal": "H3540", "telefono": "4812606", "email": "1021PEDROORTEGA@GMAIL.COM", "circuito": 79.0, "CuentaDeNU": 7.0, "SumaDeCuen": 2422.0, "departamento": "MAYOR LUIS J FONTANA", "jurisdiccion": "Chaco", "sector": "Estatal", "ambito": "Urbano", "modcomun": 1, "modespecial": 0, "modadultos": 0, "nvcjmaternal": 0, "nvcjinfantes": 0, "nvcprimario": 1, "nvcsecundario": 0, "nvcsecundinet": 0, "nvcsnu": 0, "nvcsnuinet": 0, "nvcsnucursos": 0, "nvceductempr": 0, "nvejinfantes": 0, "nveprimario": 0, "nvesecundario": 0, "nvaprimario": 0, "nvasecundario": 0, "nvaformprofes": 0, "nvaformprofesinet": 0, "nvaalfabetiz": 0, "nvhinicial": 0, "nvhprimario": 0, "nvhsecundario": 0, "tallerartist": 0, "servcomplem": 1, "nveadultos": 0, "fuente_padron": "Padrón Oficial de Establecimientos Educativos 2025"}, "geometry": {"type": "MultiPoint", "coordinates": [[-60.73471091792164, -27.571568037713224]]}}, {"type": "Feature", "properties": {"gid": 41655, "cueanexo": "220246000", "provincia": "Chaco", "departamen": "MAYOR LUIS J FONTANA", "localidad": "VILLA ANGELA", "nombre": "U.E.G.P Nº 23 (UEP Nº 23) NUESTRA SRA.P.SOCORRO - CAPULLITO DE ALGODON", "domicilio": "Ameghino 55", "cod_postal": null, "telefono": "5420142", "email": "uep23psocorro@hotmail.com", "circuito": 77.0, "CuentaDeNU": 6.0, "SumaDeCuen": 2028.0, "departamento": "MAYOR LUIS J FONTANA", "jurisdiccion": "Chaco", "sector": "Privado", "ambito": "Urbano", "modcomun": 1, "modespecial": 0, "modadultos": 0, "nvcjmaternal": 0, "nvcjinfantes": 1, "nvcprimario": 0, "nvcsecundario": 0, "nvcsecundinet": 0, "nvcsnu": 0, "nvcsnuinet": 0, "nvcsnucursos": 0, "nvceductempr": 0, "nvejinfantes": 0, "nveprimario": 0, "nvesecundario": 0, "nvaprimario": 0, "nvasecundario": 0, "nvaformprofes": 0, "nvaformprofesinet": 0, "nvaalfabetiz": 0, "nvhinicial": 0, "nvhprimario": 0, "nvhsecundario": 0, "tallerartist": 0, "servcomplem": 0, "nveadultos": 0, "fuente_padron": "Padrón Oficial de Establecimientos Educativos 2025", "nombre_padron": "U.E.G.P. Nº 23 (UEP 23) NUESTRA SRA.P.SOCORRO - CAPULLITO DE ALGODON"}, "geometry": {"type": "MultiPoint", "coordinates": [[-60.70345120591145, -27.579402599725263]]}}]}