{
"type": "FeatureCollection",
"name": "lugares_publicos_va",
"crs": { "type": "name", "properties": { "name": "urn:ogc:def:crs:OGC:1.3:CRS84" } },
"features": [
{ "type": "Feature", "properties": { "id": "way/116146220", "@id": "way/116146220", "leisure": "park", "name": "Plaza General San Martín" }, "geometry": { "type": "Polygon", "coordinates": [ [ [ -60.711648, -27.5763594 ], [ -60.7116573, -27.5772892 ], [ -60.710627, -27.5772973 ], [ -60.7106177, -27.5763675 ], [ -60.711648, -27.5763594 ] ] ] } },
{ "type": "Feature", "properties": { "id": "way/116241942", "@id": "way/116241942", "leisure": "park", "name": null }, "geometry": { "type": "Polygon", "coordinates": [ [ [ -60.7126904, -27.5674288 ], [ -60.7126962, -27.5683399 ], [ -60.7117608, -27.5683501 ], [ -60.711755, -27.5674458 ], [ -60.7126904, -27.5674288 ] ] ] } },
{ "type": "Feature", "properties": { "id": "way/116242058", "@id": "way/116242058", "leisure": "park", "name": null }, "geometry": { "type": "Polygon", "coordinates": [ [ [ -60.7277223, -27.5670612 ], [ -60.7277267, -27.5674773 ], [ -60.7266791, -27.5674858 ], [ -60.7266748, -27.5670699 ], [ -60.7277223, -27.5670612 ] ] ] } },
{ "type": "Feature", "properties": { "id": "way/116242090", "@id": "way/116242090", "leisure": "park", "name": null }, "geometry": { "type": "Polygon", "coordinates": [ [ [ -60.7077134, -27.561441 ], [ -60.707706, -27.5617948 ], [ -60.7066307, -27.5618079 ], [ -60.7066417, -27.561441 ], [ -60.7077134, -27.561441 ] ] ] } },
{ "type": "Feature", "properties": { "id": "way/116242124", "@id": "way/116242124", "leisure": "park", "name": null }, "geometry": { "type": "Polygon", "coordinates": [ [ [ -60.727795, -27.5715616 ], [ -60.727814, -27.5715754 ], [ -60.7278198, -27.5715961 ], [ -60.7278364, -27.5725208 ], [ -60.7278322, -27.5725405 ], [ -60.7278199, -27.5725548 ], [ -60.7278009, -27.5725605 ], [ -60.7267429, -27.5725704 ], [ -60.7267215, -27.5725626 ], [ -60.72671, -27.572551 ], [ -60.7267046, -27.5725316 ], [ -60.726702, -27.5716123 ], [ -60.7267066, -27.5715929 ], [ -60.7267276, -27.5715736 ], [ -60.7267534, -27.571568 ], [ -60.7277676, -27.5715585 ], [ -60.727795, -27.5715616 ] ] ] } },
{ "type": "Feature", "properties": { "id": "way/116242163", "@id": "way/116242163", "leisure": "park", "name": null }, "geometry": { "type": "Polygon", "coordinates": [ [ [ -60.7028055, -27.5676154 ], [ -60.7028145, -27.5684791 ], [ -60.7018492, -27.5684871 ], [ -60.7018131, -27.5675914 ], [ -60.7028055, -27.5676154 ] ] ] } },
{ "type": "Feature", "properties": { "id": "way/481638365", "@id": "way/481638365", "leisure": "park", "name": null }, "geometry": { "type": "Polygon", "coordinates": [ [ [ -60.7141953, -27.5796585 ], [ -60.7142033, -27.5796725 ], [ -60.7142325, -27.5809247 ], [ -60.7142285, -27.5809437 ], [ -60.7142125, -27.5809623 ], [ -60.7141868, -27.5809695 ], [ -60.7135545, -27.5809835 ], [ -60.7135355, -27.5809815 ], [ -60.7135194, -27.5809739 ], [ -60.7135089, -27.5809623 ], [ -60.7135049, -27.580944 ], [ -60.7134759, -27.5796883 ], [ -60.713476, -27.5796793 ], [ -60.7134807, -27.5796705 ], [ -60.7134934, -27.5796633 ], [ -60.7135041, -27.5796626 ], [ -60.7141609, -27.5796453 ], [ -60.7141796, -27.5796478 ], [ -60.7141953, -27.5796585 ] ] ] } },
{ "type": "Feature", "properties": { "id": "way/481660478", "@id": "way/481660478", "leisure": "park", "name": "Parque del Centenario" }, "geometry": { "type": "Polygon", "coordinates": [ [ [ -60.7133994, -27.5796806 ], [ -60.7134007, -27.579691 ], [ -60.7134026, -27.5797333 ], [ -60.7134333, -27.5809559 ], [ -60.7134289, -27.5809653 ], [ -60.71342, -27.5809763 ], [ -60.7134094, -27.5809834 ], [ -60.7133953, -27.5809897 ], [ -60.7133749, -27.5809912 ], [ -60.7119345, -27.5810147 ], [ -60.7119185, -27.5810108 ], [ -60.7119053, -27.5810038 ], [ -60.7118946, -27.5809897 ], [ -60.7118876, -27.5809693 ], [ -60.7118646, -27.5801591 ], [ -60.7118681, -27.5801403 ], [ -60.7118743, -27.5801262 ], [ -60.7118858, -27.5801113 ], [ -60.7119, -27.5800995 ], [ -60.7119123, -27.5800901 ], [ -60.71193, -27.5800784 ], [ -60.7122483, -27.57991 ], [ -60.7122647, -27.5798981 ], [ -60.7122763, -27.5798882 ], [ -60.7122828, -27.5798805 ], [ -60.7122868, -27.5798701 ], [ -60.7122898, -27.579853 ], [ -60.7122909, -27.5798313 ], [ -60.7122885, -27.5797397 ], [ -60.7122916, -27.5797177 ], [ -60.7122977, -27.579703 ], [ -60.7123058, -27.5796928 ], [ -60.7123159, -27.579684 ], [ -60.7123289, -27.5796771 ], [ -60.7123411, -27.5796745 ], [ -60.7123505, -27.579673 ], [ -60.7133558, -27.5796614 ], [ -60.7133793, -27.5796648 ], [ -60.7133912, -27.5796715 ], [ -60.7133994, -27.5796806 ] ] ] } },
{ "type": "Feature", "properties": { "id": "way/542952735", "@id": "way/542952735", "leisure": "park", "name": "Plaza \"20 de junio\"" }, "geometry": { "type": "Polygon", "coordinates": [ [ [ -60.7383557, -27.5747646 ], [ -60.7368759, -27.5747773 ], [ -60.7368656, -27.573832 ], [ -60.7383453, -27.5738192 ], [ -60.7383557, -27.5747646 ] ] ] } },
{ "type": "Feature", "properties": { "id": "way/802406989", "@id": "way/802406989", "leisure": "park", "name": null }, "geometry": { "type": "Polygon", "coordinates": [ [ [ -60.7116283, -27.5674091 ], [ -60.7116425, -27.5681879 ], [ -60.7116283, -27.5682279 ], [ -60.7116022, -27.5682532 ], [ -60.7115713, -27.5682532 ], [ -60.7115499, -27.5682469 ], [ -60.7115309, -27.5682069 ], [ -60.7115096, -27.5673544 ], [ -60.7115119, -27.5673186 ], [ -60.7115381, -27.5672954 ], [ -60.7115737, -27.567287 ], [ -60.711595, -27.5672954 ], [ -60.7116164, -27.5673291 ], [ -60.7116283, -27.5674091 ] ] ] } },
{ "type": "Feature", "properties": { "id": "way/802407012", "@id": "way/802407012", "leisure": "park", "name": null }, "geometry": { "type": "Polygon", "coordinates": [ [ [ -60.733588, -27.5855054 ], [ -60.733588, -27.5844897 ], [ -60.7342609, -27.5844897 ], [ -60.7342697, -27.5854767 ], [ -60.733588, -27.5855054 ] ] ] } },
{ "type": "Feature", "properties": { "id": "way/1098132565", "@id": "way/1098132565", "leisure": "park", "name": null }, "geometry": { "type": "Polygon", "coordinates": [ [ [ -60.6983652, -27.5576459 ], [ -60.6983724, -27.5579586 ], [ -60.6978979, -27.5579672 ], [ -60.6978906, -27.5576545 ], [ -60.6983652, -27.5576459 ] ] ] } }
]
}
