{
"type": "FeatureCollection",
"name": "mesas_electores_x_escuela_va",
"crs": { "type": "name", "properties": { "name": "urn:ogc:def:crs:OGC:1.3:CRS84" } },
"features": [
{ "type": "Feature", "properties": { "gid": 39487, "cueanexo": "220082800", "provincia": "Chaco", "departamen": "MAYOR LUIS J FONTANA", "localidad": "VILLA ANGELA", "nombre": "E.E.E. Nº 8 - CLAUDIO ZAPICO", "domicilio": "PASAJE S/NOMBRE  SAN CAYETANO MZ.34-Bº SAN CAYETANO", "cod_postal": "H3540", "telefono": "429964", "email": "eeen8@hotmail.com", "circuito": 79.0, "CuentaDeNU": 6.0, "SumaDeCuen": 2076.0 }, "geometry": { "type": "MultiPoint", "coordinates": [ [ -60.721975326242358, -27.566782588341617 ] ] } },
{ "type": "Feature", "properties": { "gid": 39763, "cueanexo": "220101600", "provincia": "Chaco", "departamen": "MAYOR LUIS J FONTANA", "localidad": "VILLA ANGELA", "nombre": "INSTITUTO DE EDUCACION SUPERIOR - VILLA ANGELA", "domicilio": "RIVADAVIA", "cod_postal": "H3540", "telefono": "430808", "email": "institutovillaangela@hotmail.com", "circuito": 78.0, "CuentaDeNU": 8.0, "SumaDeCuen": 2784.0 }, "geometry": { "type": "MultiPoint", "coordinates": [ [ -60.714520526221676, -27.567024501393568 ] ] } },
{ "type": "Feature", "properties": { "gid": 39768, "cueanexo": "220101700", "provincia": "Chaco", "departamen": "MAYOR LUIS J FONTANA", "localidad": "VILLA ANGELA", "nombre": "E.E.S. Nº 14 - GRAL. MANUEL BELGRANO (CEP 14)", "domicilio": "COLON 586", "cod_postal": "H3540", "telefono": "430322", "email": "ees14@hotmail.com.ar", "circuito": 78.0, "CuentaDeNU": 8.0, "SumaDeCuen": 2793.0 }, "geometry": { "type": "MultiPoint", "coordinates": [ [ -60.705639132035827, -27.573282136106357 ] ] } },
{ "type": "Feature", "properties": { "gid": 39772, "cueanexo": "220102000", "provincia": "Chaco", "departamen": "MAYOR LUIS J FONTANA", "localidad": "VILLA ANGELA", "nombre": "E.E.S. Nº 24 - NELIDA SALOM DE FRANCHINI (CEP Nº 24)", "domicilio": "LUIS BRAILE Y LAVALLE  VILLA MARIA Bº VILLA MARIA", "cod_postal": "H3540", "telefono": "420104", "email": "ees24_va@yahoo.com.ar", "circuito": 78.0, "CuentaDeNU": 7.0, "SumaDeCuen": 2437.0 }, "geometry": { "type": "MultiPoint", "coordinates": [ [ -60.715961617052315, -27.567076358988455 ] ] } },
{ "type": "Feature", "properties": { "gid": 39801, "cueanexo": "220103400", "provincia": "Chaco", "departamen": "MAYOR LUIS J FONTANA", "localidad": "VILLA ANGELA", "nombre": "E.E.T. Nº 25", "domicilio": "ESPINOZA", "cod_postal": "H3540", "telefono": "423515", "email": "eet25va@yahoo.com.ar", "circuito": 77.0, "CuentaDeNU": 7.0, "SumaDeCuen": 2367.0 }, "geometry": { "type": "MultiPoint", "coordinates": [ [ -60.718984689355104, -27.583041217988502 ] ] } },
{ "type": "Feature", "properties": { "gid": 39802, "cueanexo": "220103500", "provincia": "Chaco", "departamen": "MAYOR LUIS J FONTANA", "localidad": "VILLA ANGELA", "nombre": "E.E.S. Nº 9 - MAESTRO SARMIENTO (CEP Nº 9)", "domicilio": "RIVADAVIA Y LOS ANDES  VILLA MARIA BºVILLA MARIA", "cod_postal": "H3540", "telefono": "431033", "email": "ees9maestrosarmiento@hotmail.com", "circuito": 78.0, "CuentaDeNU": 7.0, "SumaDeCuen": 2436.0 }, "geometry": { "type": "MultiPoint", "coordinates": [ [ -60.714153673438801, -27.566577456094084 ] ] } },
{ "type": "Feature", "properties": { "gid": 39895, "cueanexo": "220109000", "provincia": "Chaco", "departamen": "MAYOR LUIS J FONTANA", "localidad": "VILLA ANGELA", "nombre": "U.E.G.P Nº 61 (UEP Nº 61) EBEN EZER", "domicilio": "AV.URUGUAY", "cod_postal": "H3540", "telefono": "-431173", "email": "normadorsch@hotmail.com", "circuito": 79.0, "CuentaDeNU": 7.0, "SumaDeCuen": 2422.0 }, "geometry": { "type": "MultiPoint", "coordinates": [ [ -60.719161610952412, -27.57373950483251 ] ] } },
{ "type": "Feature", "properties": { "gid": 39896, "cueanexo": "220109100", "provincia": "Chaco", "departamen": "MAYOR LUIS J FONTANA", "localidad": "VILLA ANGELA", "nombre": "U.E.G.P Nº 28 (UEP Nº 28) FELIX FRIAS", "domicilio": "Av.Kennedy y Maipú", "cod_postal": "H3540", "telefono": "420767", "email": "uep28@hotmail.com", "circuito": 79.0, "CuentaDeNU": 7.0, "SumaDeCuen": 2422.0 }, "geometry": { "type": "MultiPoint", "coordinates": [ [ -60.723415770261205, -27.571953832717643 ] ] } },
{ "type": "Feature", "properties": { "gid": 40336, "cueanexo": "220138100", "provincia": "Chaco", "departamen": "MAYOR LUIS J FONTANA", "localidad": "VILLA ANGELA", "nombre": "E.E.P. Nº 1001 - LUIS LANDRISCINA", "domicilio": "LAVALLE Y MATHURIN", "cod_postal": "H3540", "telefono": "-429008", "email": "gracielapino@hotmail.com", "circuito": 78.0, "CuentaDeNU": 7.0, "SumaDeCuen": 2437.0 }, "geometry": { "type": "MultiPoint", "coordinates": [ [ -60.716046357947071, -27.565368449733647 ] ] } },
{ "type": "Feature", "properties": { "gid": 40337, "cueanexo": "220138200", "provincia": "Chaco", "departamen": "MAYOR LUIS J FONTANA", "localidad": "VILLA ANGELA", "nombre": "E.E.P. Nº 389 - DOCTOR EDUARDO R.BATTIONI", "domicilio": "PASTEUR 1073 GRAL.SAN MARTIN B° GRAL.SAN MARTIN", "cod_postal": "H3540", "telefono": "812606", "email": "eep389villaangelachaco@hotmail.com", "circuito": 78.0, "CuentaDeNU": 8.0, "SumaDeCuen": 2792.0 }, "geometry": { "type": "MultiPoint", "coordinates": [ [ -60.698480158803157, -27.577813826787487 ] ] } },
{ "type": "Feature", "properties": { "gid": 40338, "cueanexo": "220138300", "provincia": "Chaco", "departamen": "MAYOR LUIS J FONTANA", "localidad": "VILLA ANGELA", "nombre": "E.E.P. Nº 140 - REGIMIENTO DE PATRICIOS", "domicilio": "AV.DEL TRABAJO 1 SUR CIRC.I-SEC.VI-QTA.43-MZ.7", "cod_postal": "H3540", "telefono": "420859", "email": "eep140va@gmail.com", "circuito": 77.0, "CuentaDeNU": 7.0, "SumaDeCuen": 2369.0 }, "geometry": { "type": "MultiPoint", "coordinates": [ [ -60.711608376217548, -27.584690715302312 ] ] } },
{ "type": "Feature", "properties": { "gid": 40339, "cueanexo": "220138400", "provincia": "Chaco", "departamen": "MAYOR LUIS J FONTANA", "localidad": "VILLA ANGELA", "nombre": "E.E.P. Nº 82 - ALBERTO LARROQUE", "domicilio": "NECOCHEA  PUEBLO VIEJO MAIPU, HUNGRIA Y ALEM", "cod_postal": "H3540", "telefono": "429905", "email": "eep82albertolarroque@gmail.com", "circuito": 79.0, "CuentaDeNU": 7.0, "SumaDeCuen": 2430.0 }, "geometry": { "type": "MultiPoint", "coordinates": [ [ -60.727944911099797, -27.57196698185788 ] ] } },
{ "type": "Feature", "properties": { "gid": 40340, "cueanexo": "220138500", "provincia": "Chaco", "departamen": "MAYOR LUIS J FONTANA", "localidad": "VILLA ANGELA", "nombre": "E.E.P. Nº 11 - BARTOLOME MITRE", "domicilio": "BARTOLOME MITRE 1002  SEC.E-MZ.12-CH.12", "cod_postal": "H3540", "telefono": "421046", "email": "e.e.e.11@hotmail.com.ar", "circuito": 78.0, "CuentaDeNU": 8.0, "SumaDeCuen": 2792.0 }, "geometry": { "type": "MultiPoint", "coordinates": [ [ -60.712937859624375, -27.568113363676119 ] ] } },
{ "type": "Feature", "properties": { "gid": 40353, "cueanexo": "220139400", "provincia": "Chaco", "departamen": "MAYOR LUIS J FONTANA", "localidad": "VILLA ANGELA", "nombre": "E.E.P. Nº 663 - BRIGADIER GENERAL DON JUAN MANUEL DE ROSAS", "domicilio": "ALBERDI 1900 SARGENTO CABRAL Bº SGTO.CABRAL", "cod_postal": "H3540", "telefono": "421009", "email": "EGB663VILLAANGELACHACO@HOTMAIL.COM", "circuito": 79.0, "CuentaDeNU": 7.0, "SumaDeCuen": 2429.0 }, "geometry": { "type": "MultiPoint", "coordinates": [ [ -60.733147578796313, -27.579924678605959 ] ] } },
{ "type": "Feature", "properties": { "gid": 40599, "cueanexo": "220161300", "provincia": "Chaco", "departamen": "MAYOR LUIS J FONTANA", "localidad": "VILLA ANGELA", "nombre": "E.E.P. Nº 1021 - PEDRO ORTEGA", "domicilio": "MAIPU 1875 A.I.P.O. CHACRA 36-PC.5-BºAIPO", "cod_postal": "H3540", "telefono": "4812606", "email": "1021PEDROORTEGA@GMAIL.COM", "circuito": 79.0, "CuentaDeNU": 7.0, "SumaDeCuen": 2422.0 }, "geometry": { "type": "MultiPoint", "coordinates": [ [ -60.734710917921639, -27.571568037713224 ] ] } },
{ "type": "Feature", "properties": { "gid": 41655, "cueanexo": "220246000", "provincia": "Chaco", "departamen": "MAYOR LUIS J FONTANA", "localidad": "VILLA ANGELA", "nombre": "U.E.G.P Nº 23 (UEP Nº 23) NUESTRA SRA.P.SOCORRO - CAPULLITO DE ALGODON", "domicilio": "Ameghino 55", "cod_postal": null, "telefono": "5420142", "email": "uep23psocorro@hotmail.com", "circuito": 77.0, "CuentaDeNU": 6.0, "SumaDeCuen": 2028.0 }, "geometry": { "type": "MultiPoint", "coordinates": [ [ -60.703451205911449, -27.579402599725263 ] ] } }
]
}
