{"type":"FeatureCollection","generator":"overpass-api / fetch_negocios_osm.py","copyright":"The data included in this document is from www.openstreetmap.org. The data is made available under ODbL.","timestamp":"2026-09-16T22:27:23Z","features":[{"type":"Feature","properties":{"@id":"node/2015823476","name":"","tipo":"amenity=fuel","amenity":"fuel"},"geometry":{"type":"Point","coordinates":[-60.7113982,-27.5702565]},"id":"node/2015823476"},{"type":"Feature","properties":{"@id":"node/2015823477","name":"","tipo":"amenity=fuel","amenity":"fuel"},"geometry":{"type":"Point","coordinates":[-60.717697,-27.5785]},"id":"node/2015823477"},{"type":"Feature","properties":{"@id":"node/2015823547","name":"Bri - Mier","tipo":"shop=kiosk","shop":"kiosk"},"geometry":{"type":"Point","coordinates":[-60.7208347,-27.5676725]},"id":"node/2015823547"},{"type":"Feature","properties":{"@id":"node/3595164993","name":"Ivotí","tipo":"amenity=pharmacy","amenity":"pharmacy"},"geometry":{"type":"Point","coordinates":[-60.723299,-27.5783937]},"id":"node/3595164993"},{"type":"Feature","properties":{"@id":"node/3815572047","name":"Centro Ex Combatientes de Malvinas \"Juan Anselmo Peralta\"","tipo":"office=association","office":"association"},"geometry":{"type":"Point","coordinates":[-60.7141472,-27.5648595]},"id":"node/3815572047"},{"type":"Feature","properties":{"@id":"node/3958502583","name":"","tipo":"amenity=fuel","amenity":"fuel"},"geometry":{"type":"Point","coordinates":[-60.7179092,-27.5702193]},"id":"node/3958502583"},{"type":"Feature","properties":{"@id":"node/3958502584","name":"","tipo":"amenity=fuel","amenity":"fuel"},"geometry":{"type":"Point","coordinates":[-60.71534,-27.57854]},"id":"node/3958502584"},{"type":"Feature","properties":{"@id":"node/3958502585","name":"Shell","tipo":"amenity=fuel","amenity":"fuel"},"geometry":{"type":"Point","coordinates":[-60.731256,-27.579638]},"id":"node/3958502585"},{"type":"Feature","properties":{"@id":"node/3958502586","name":"","tipo":"amenity=fuel","amenity":"fuel"},"geometry":{"type":"Point","coordinates":[-60.7467623,-27.5809483]},"id":"node/3958502586"},{"type":"Feature","properties":{"@id":"node/4303011991","name":"Predio Carlos Gardel","tipo":"shop=ticket","shop":"ticket"},"geometry":{"type":"Point","coordinates":[-60.7111928,-27.5804539]},"id":"node/4303011991"},{"type":"Feature","properties":{"@id":"node/4303023297","name":"Servicios Energéticos del Chaco Empresa del Estado Provincial","tipo":"office=government","office":"government"},"geometry":{"type":"Point","coordinates":[-60.7088109,-27.5814648]},"id":"node/4303023297"},{"type":"Feature","properties":{"@id":"node/4303023499","name":"","tipo":"amenity=atm","amenity":"atm"},"geometry":{"type":"Point","coordinates":[-60.7118687,-27.5761546]},"id":"node/4303023499"},{"type":"Feature","properties":{"@id":"node/4303128890","name":"Consejo Profesional de Agrimensores, Arquitectos e Ingenieros de la Provincia del Chaco","tipo":"office=government","office":"government"},"geometry":{"type":"Point","coordinates":[-60.716782,-27.5796718]},"id":"node/4303128890"},{"type":"Feature","properties":{"@id":"node/4462546789","name":"","tipo":"amenity=atm","amenity":"atm"},"geometry":{"type":"Point","coordinates":[-60.7107069,-27.576102]},"id":"node/4462546789"},{"type":"Feature","properties":{"@id":"node/4591630889","name":"Peluquería Different Stylo","tipo":"shop=hairdresser","shop":"hairdresser"},"geometry":{"type":"Point","coordinates":[-60.7056987,-27.5723012]},"id":"node/4591630889"},{"type":"Feature","properties":{"@id":"node/4915826521","name":"Taller Mecánico de Bretscher Hermanos","tipo":"shop=car_repair","shop":"car_repair"},"geometry":{"type":"Point","coordinates":[-60.7031408,-27.5738076]},"id":"node/4915826521"},{"type":"Feature","properties":{"@id":"node/5069774322","name":"La Juana Resto & Bar","tipo":"amenity=restaurant","amenity":"restaurant"},"geometry":{"type":"Point","coordinates":[-60.7116349,-27.5565374]},"id":"node/5069774322"},{"type":"Feature","properties":{"@id":"node/5445534222","name":"Agencia 225-03","tipo":"shop=bookmaker","shop":"bookmaker"},"geometry":{"type":"Point","coordinates":[-60.7282267,-27.5675993]},"id":"node/5445534222"},{"type":"Feature","properties":{"@id":"node/5445540321","name":"Agencia 225-03","tipo":"shop=bookmaker","shop":"bookmaker"},"geometry":{"type":"Point","coordinates":[-60.7281991,-27.5676611]},"id":"node/5445540321"},{"type":"Feature","properties":{"@id":"node/5753877322","name":"Tigereye","tipo":"shop=sports","shop":"sports"},"geometry":{"type":"Point","coordinates":[-60.7163223,-27.5783293]},"id":"node/5753877322"},{"type":"Feature","properties":{"@id":"node/5753925821","name":"Impronta Publicidad","tipo":"shop=copyshop","shop":"copyshop"},"geometry":{"type":"Point","coordinates":[-60.7164449,-27.5783011]},"id":"node/5753925821"},{"type":"Feature","properties":{"@id":"node/7501055039","name":"","tipo":"amenity=atm","amenity":"atm"},"geometry":{"type":"Point","coordinates":[-60.7147374,-27.5861252]},"id":"node/7501055039"},{"type":"Feature","properties":{"@id":"node/7546010051","name":"Cámara de Comercio Villa Ángela","tipo":"office=yes","office":"yes"},"geometry":{"type":"Point","coordinates":[-60.7137959,-27.573971]},"id":"node/7546010051"},{"type":"Feature","properties":{"@id":"node/7546010063","name":"Villa Ángela","tipo":"amenity=pharmacy","amenity":"pharmacy"},"geometry":{"type":"Point","coordinates":[-60.7058424,-27.5762696]},"id":"node/7546010063"},{"type":"Feature","properties":{"@id":"node/7546010196","name":"Joaquin","tipo":"amenity=pharmacy","amenity":"pharmacy"},"geometry":{"type":"Point","coordinates":[-60.7154633,-27.5841471]},"id":"node/7546010196"},{"type":"Feature","properties":{"@id":"node/7546011144","name":"Remopack Mayorista","tipo":"shop=wholesale","shop":"wholesale"},"geometry":{"type":"Point","coordinates":[-60.7226199,-27.5732625]},"id":"node/7546011144"},{"type":"Feature","properties":{"@id":"node/7546011238","name":"Modashop Villa Angela","tipo":"shop=clothes","shop":"clothes"},"geometry":{"type":"Point","coordinates":[-60.7106494,-27.5672739]},"id":"node/7546011238"},{"type":"Feature","properties":{"@id":"node/7546011243","name":"Toyota","tipo":"shop=car","shop":"car"},"geometry":{"type":"Point","coordinates":[-60.7112677,-27.5672156]},"id":"node/7546011243"},{"type":"Feature","properties":{"@id":"node/7546011244","name":"Rotisería LB","tipo":"amenity=fast_food","amenity":"fast_food"},"geometry":{"type":"Point","coordinates":[-60.712726,-27.5811502]},"id":"node/7546011244"},{"type":"Feature","properties":{"@id":"node/7546011263","name":"Al Dente","tipo":"amenity=restaurant","amenity":"restaurant"},"geometry":{"type":"Point","coordinates":[-60.7131531,-27.577719]},"id":"node/7546011263"},{"type":"Feature","properties":{"@id":"node/7546011280","name":"Jardín Secreto","tipo":"amenity=bar","amenity":"bar"},"geometry":{"type":"Point","coordinates":[-60.711605,-27.5774959]},"id":"node/7546011280"},{"type":"Feature","properties":{"@id":"node/7546011287","name":"La Provinciana Buena Gastronomia","tipo":"amenity=fast_food","amenity":"fast_food"},"geometry":{"type":"Point","coordinates":[-60.7115935,-27.5794389]},"id":"node/7546011287"},{"type":"Feature","properties":{"@id":"node/7546011298","name":"Remo","tipo":"shop=supermarket","shop":"supermarket"},"geometry":{"type":"Point","coordinates":[-60.7118277,-27.570917]},"id":"node/7546011298"},{"type":"Feature","properties":{"@id":"node/7546011315","name":"Vega Propiedades","tipo":"office=estate_agent","office":"estate_agent"},"geometry":{"type":"Point","coordinates":[-60.7100626,-27.5785999]},"id":"node/7546011315"},{"type":"Feature","properties":{"@id":"node/7546011325","name":"Chano Bus","tipo":"shop=yes","shop":"yes"},"geometry":{"type":"Point","coordinates":[-60.7338428,-27.5750618]},"id":"node/7546011325"},{"type":"Feature","properties":{"@id":"node/7546011374","name":"Nadelman","tipo":"amenity=pharmacy","amenity":"pharmacy"},"geometry":{"type":"Point","coordinates":[-60.7123944,-27.5794027]},"id":"node/7546011374"},{"type":"Feature","properties":{"@id":"node/7546011382","name":"Registro del Automotor","tipo":"office=government","office":"government"},"geometry":{"type":"Point","coordinates":[-60.7098784,-27.5751262]},"id":"node/7546011382"},{"type":"Feature","properties":{"@id":"node/9254894407","name":"Banco Nación","tipo":"amenity=atm","amenity":"atm"},"geometry":{"type":"Point","coordinates":[-60.7106351,-27.5742701]},"id":"node/9254894407"},{"type":"Feature","properties":{"@id":"node/10215585061","name":"Super Carauni 5","tipo":"shop=supermarket","shop":"supermarket"},"geometry":{"type":"Point","coordinates":[-60.7196299,-27.5704988]},"id":"node/10215585061"},{"type":"Feature","properties":{"@id":"node/10215594635","name":"Super Carauni 2","tipo":"shop=supermarket","shop":"supermarket"},"geometry":{"type":"Point","coordinates":[-60.7083604,-27.582633]},"id":"node/10215594635"},{"type":"Feature","properties":{"@id":"node/11176634295","name":"Despensa Leo","tipo":"shop=convenience","shop":"convenience"},"geometry":{"type":"Point","coordinates":[-60.6993318,-27.5744463]},"id":"node/11176634295"},{"type":"Feature","properties":{"@id":"node/13095155162","name":"Er-gus","tipo":"shop=butcher","shop":"butcher"},"geometry":{"type":"Point","coordinates":[-60.7101646,-27.5706819]},"id":"node/13095155162"},{"type":"Feature","properties":{"@id":"way/116146257","name":"Musimundo","tipo":"shop=electronics","shop":"electronics"},"geometry":{"type":"Point","coordinates":[-60.7120297,-27.5775687]},"id":"way/116146257"},{"type":"Feature","properties":{"@id":"way/116242271","name":"Banco Nación","tipo":"amenity=bank","amenity":"bank"},"geometry":{"type":"Point","coordinates":[-60.7120723,-27.5760057]},"id":"way/116242271"},{"type":"Feature","properties":{"@id":"way/805424718","name":"Hiper Carauni","tipo":"shop=supermarket","shop":"supermarket"},"geometry":{"type":"Point","coordinates":[-60.7107403,-27.5679374]},"id":"way/805424718"},{"type":"Feature","properties":{"@id":"way/805424731","name":"Municipalidad de Villa Ángela","tipo":"amenity=townhall","amenity":"townhall","office":"government"},"geometry":{"type":"Point","coordinates":[-60.7114652,-27.575995]},"id":"way/805424731"},{"type":"Feature","properties":{"@id":"way/805424733","name":"Nuevo Banco del Chaco SA","tipo":"amenity=bank","amenity":"bank"},"geometry":{"type":"Point","coordinates":[-60.7107871,-27.5761077]},"id":"way/805424733"},{"type":"Feature","properties":{"@id":"way/806562161","name":"Super Carauni 3","tipo":"shop=supermarket","shop":"supermarket"},"geometry":{"type":"Point","coordinates":[-60.7025544,-27.5768086]},"id":"way/806562161"},{"type":"Feature","properties":{"@id":"way/806939253","name":"Super Carauni 4","tipo":"shop=supermarket","shop":"supermarket"},"geometry":{"type":"Point","coordinates":[-60.7344476,-27.574002]},"id":"way/806939253"},{"type":"Feature","properties":{"@id":"way/813464917","name":"Super Carauni","tipo":"shop=supermarket","shop":"supermarket"},"geometry":{"type":"Point","coordinates":[-60.7272154,-27.5785419]},"id":"way/813464917"}]}
