{
"type": "FeatureCollection",
"name": "circuilto_elect_sp",
"crs": {"type": "name", "properties": {"name": "urn:ogc:def:crs:OGC:1.3:CRS84"}},
"features": [
{"type": "Feature","properties": {"Name": null,"descriptio": null,"timestamp": null,"begin": null,"end": null,"altitudeMo": null,"tessellate": -1,"extrude": 0,"visibility": -1,"drawOrder": null,"icon": null,"DEPTO": "021","COUNT": null,"CIRC_ELECT": 87},"geometry": {"type": "MultiPolygon","coordinates": [[[[-60.3677,-26.9194],[-60.3825,-26.9529],[-60.4233,-27.0455],[-60.5111,-27.0146],[-60.515,-27.0132],[-60.5271,-27.009],[-60.6204,-26.9761],[-60.6267,-26.9739],[-60.7043,-26.9465],[-60.7018,-26.941],[-60.6904,-26.916],[-60.544,-26.8502],[-60.4141,-26.8703],[-60.4034,-26.873],[-60.3677,-26.9194]]]]}},
{"type": "Feature","properties": {"Name": null,"descriptio": null,"timestamp": null,"begin": null,"end": null,"altitudeMo": null,"tessellate": -1,"extrude": 0,"visibility": -1,"drawOrder": null,"icon": null,"DEPTO": "021","COUNT": 685.0,"CIRC_ELECT": 88},"geometry": {"type": "MultiPolygon","coordinates": [[[[-60.41948321404,-26.8024275844827],[-60.4184385648413,-26.8027871665752],[-60.4168213989139,-26.8033560046503],[-60.4152595159991,-26.8039201496786],[-60.414671928304,-26.8041339614288],[-60.4150573965275,-26.8050353412258],[-60.4154275707736,-26.8058781015947],[-60.4158436355635,-26.8068922027593],[-60.4160768233249,-26.8074014351516],[-60.4164470130037,-26.8082441923981],[-60.4174001626746,-26.8103487427688],[-60.4175827107948,-26.8107588457016],[-60.41763915425,-26.8110655320028],[-60.4176804778368,-26.8113632377952],[-60.4177016854519,-26.8116610029174],[-60.4176231882724,-26.8121982268451],[-60.4174178060698,-26.8124199470801],[-60.4171772194174,-26.8126417707691],[-60.4169214289665,-26.8128320510477],[-60.4165651873991,-26.8130587268226],[-60.4157615665137,-26.8133453794139],[-60.4127479639559,-26.8144236706795],[-60.4132954188992,-26.8156088713808],[-60.4137315858873,-26.8166138934485],[-60.4139903574981,-26.8172403797099],[-60.4195254316946,-26.8152656411512],[-60.4203671716201,-26.817131334209],[-60.4208184280267,-26.8181182386744],[-60.4212596002345,-26.8190961464407],[-60.4222130824997,-26.8212412714375],[-60.4241647006138,-26.8253373266585],[-60.4262076732665,-26.8296135772915],[-60.4311002244863,-26.8278794836954],[-60.4355206286172,-26.8263542518883],[-60.4401165655856,-26.8247290613868],[-60.4449283575793,-26.8230308435962],[-60.4485747693454,-26.8217422887127],[-60.4543958100403,-26.8196885715607],[-60.4553400213111,-26.8218741099309],[-60.4603172461319,-26.8201297139087],[-60.4593629326803,-26.8179532668085],[-60.4611056523174,-26.8173429222912],[-60.4640737422804,-26.816299854706],[-60.4664840373742,-26.8153804026474],[-60.4684926483288,-26.8146292030703],[-60.4730771949406,-26.8129127356822],[-60.4712142517879,-26.8087403541063],[-60.4693918439176,-26.8046084225994],[-60.4692953884075,-26.8043876285361],[-60.4786750940847,-26.8010485488345],[-60.4755276130935,-26.7939158210997],[-60.4754623778071,-26.7939476278347],[-60.4712031727581,-26.7841516103029],[-60.4643652948663,-26.7866290116988],[-60.4634916292144,-26.7869251881293],[-60.4627786517505,-26.7871711963821],[-60.4619351636811,-26.7874717772146],[-60.461706312814,-26.7868317425974],[-60.4605916070659,-26.7872053998584],[-60.4593916184435,-26.7876289629577],[-60.4582317902544,-26.7880388484141],[-60.4570568153734,-26.7884352356797],[-60.4561581205499,-26.7887675482063],[-60.4552593303818,-26.7890772926632],[-60.4543505151134,-26.7893960886905],[-60.4532509691145,-26.789801227676],[-60.45227605124955,-26.79014862097967],[-60.452224488951636,-26.79001799649163],[-60.4507850074748,-26.7905220789408],[-60.4496753635755,-26.7909227099191],[-60.4485555845308,-26.7913053141808],[-60.4474257946561,-26.7917014788914],[-60.4463060708069,-26.7921021154642],[-60.4455980509295,-26.792348022084],[-60.4451612156548,-26.7925073347694],[-60.4440514794201,-26.7928943845956],[-60.4429115486849,-26.7932770076599],[-60.441791810529,-26.7936821213299],[-60.4406569272283,-26.7940737356883],[-60.4395572339547,-26.7944652317882],[-60.4384324435851,-26.7948703347249],[-60.4371719844069,-26.7953029229016],[-60.4359065734192,-26.7957580778838],[-60.434786802522,-26.7961676491184],[-60.4338627695625,-26.7964818485784],[-60.4336818683674,-26.7965139904867],[-60.4335616849321,-26.7966452222758],[-60.4335521084886,-26.7967716028452],[-60.4335776792777,-26.7968843381747],[-60.4336692026216,-26.7971502980578],[-60.4337857311453,-26.7973800809224],[-60.4314003771041,-26.7982176757309],[-60.4302353262977,-26.7986318616727],[-60.4290352033232,-26.7990822447018],[-60.4278600270461,-26.7994829042478],[-60.4266949163212,-26.7998880363067],[-60.425595100891,-26.8002749124167],[-60.424374760386,-26.8007072667395],[-60.420075862182,-26.8022272754934],[-60.41948321404,-26.8024275844827]]]]}},
{"type": "Feature","properties": {"Name": null,"descriptio": null,"timestamp": null,"begin": null,"end": null,"altitudeMo": null,"tessellate": -1,"extrude": 0,"visibility": -1,"drawOrder": null,"icon": null,"DEPTO": "021","COUNT": 504.0,"CIRC_ELECT": 89},"geometry": {"type": "MultiPolygon","coordinates": [[[[-60.4121616049122,-26.7983020523277],[-60.4130388512498,-26.800321118864],[-60.4144132165528,-26.8035164999546],[-60.414671928304,-26.8041339614288],[-60.4152595159991,-26.8039201496786],[-60.4168213989139,-26.8033560046503],[-60.4184385648413,-26.8027871665752],[-60.41948321404,-26.8024275844827],[-60.420075862182,-26.8022272754934],[-60.424374760386,-26.8007072667394],[-60.425595100891,-26.8002749124166],[-60.4266949163212,-26.7998880363067],[-60.4278600270461,-26.7994829042478],[-60.4290352033232,-26.7990822447018],[-60.4302353262977,-26.7986318616727],[-60.4314003771041,-26.7982176757309],[-60.4337857311452,-26.7973800809224],[-60.4351012805107,-26.7968796652806],[-60.434786802522,-26.7961676491184],[-60.4359065734191,-26.7957580778838],[-60.4371719844069,-26.7953029229016],[-60.4367204558362,-26.7942574056081],[-60.4362741019625,-26.7932479710738],[-60.435837829706,-26.7922430164418],[-60.4354015824727,-26.7912425727249],[-60.4349501554951,-26.7902150987795],[-60.4345087928619,-26.7891875923005],[-60.4340776488183,-26.788200665861],[-60.4336213039375,-26.7871957648488],[-60.4332101156584,-26.7861636487528],[-60.4327638083067,-26.7851496887474],[-60.432332712155,-26.7841672685704],[-60.4318964249639,-26.7831397371665],[-60.4314501585122,-26.7821302848105],[-60.4310140065827,-26.7811343377302],[-60.4305778283272,-26.7801293640671],[-60.4300758058727,-26.7789937245805],[-60.4295687150508,-26.777844560737],[-60.4291426683668,-26.7768530889245],[-60.4287014790128,-26.7758436112042],[-60.4282652742073,-26.7748205791509],[-60.4278341385319,-26.7738065553555],[-60.4274081393197,-26.7728195899153],[-60.4269519332277,-26.7718191763173],[-60.426500661346,-26.7707916708072],[-60.4261710272985,-26.770025526628],[-60.4256613299431,-26.7688979748312],[-60.4252461897935,-26.7678500914954],[-60.4247224788184,-26.766705390468],[-60.4242496443067,-26.7655831172328],[-60.423880133675,-26.7647242035053],[-60.423501017189,-26.7638062964174],[-60.423178887063,-26.763056849317],[-60.4228284900342,-26.7622821909953],[-60.4218245696967,-26.7600339535402],[-60.4218183616366,-26.7600204072483],[-60.4199376991699,-26.7559165450169],[-60.4187352428381,-26.7533319034348],[-60.4152005812683,-26.7545528924024],[-60.4132678131839,-26.7552354264035],[-60.405837755564,-26.7578651620298],[-60.3959170731004,-26.7613724164778],[-60.399677060403,-26.7699538091136],[-60.4014457930351,-26.7739965862843],[-60.403250116679,-26.7781159503805],[-60.4051456166845,-26.7823884544695],[-60.4060783209779,-26.7845202261613],[-60.4069858081555,-26.7866204753106],[-60.4073762311084,-26.7875354027007],[-60.4077007638532,-26.7883016040653],[-60.408080867927,-26.7891398454099],[-60.4084207043994,-26.7899646640314],[-60.4087958074844,-26.7908074301469],[-60.4093685695093,-26.7920828293589],[-60.4106713096757,-26.7949941683346],[-60.4121616049122,-26.7983020523277]]]]}},
{"type": "Feature","properties": {"Name": null,"descriptio": null,"timestamp": null,"begin": null,"end": null,"altitudeMo": null,"tessellate": -1,"extrude": 0,"visibility": -1,"drawOrder": null,"icon": null,"DEPTO": "021","COUNT": 48.0,"CIRC_ELECT": 90},"geometry": {"type": "MultiPolygon","coordinates": [[[[-60.4431484652081,-26.7908394927055],[-60.4427021036158,-26.789839103459],[-60.4422757921,-26.7888205998041],[-60.4418396245785,-26.7878517634148],[-60.4414133109623,-26.7868287441992],[-60.4409416494346,-26.7857787893534],[-60.4405204319674,-26.7847692887946],[-60.4393957054528,-26.7851653737299],[-60.4383011036599,-26.7855523314786],[-60.4371662884017,-26.785943917474],[-60.4360264545604,-26.786340022425],[-60.4348916750259,-26.7867451278373],[-60.4336213039375,-26.7871957648488],[-60.4340776488183,-26.788200665861],[-60.4345087928619,-26.7891875923005],[-60.4349501554951,-26.7902150987795],[-60.4354015824727,-26.7912425727249],[-60.435837829706,-26.7922430164418],[-60.4362741019625,-26.7932479710738],[-60.4367204558362,-26.7942574056081],[-60.4371719844069,-26.7953029229016],[-60.4384324435851,-26.7948703347249],[-60.4395572339547,-26.7944652317882],[-60.4406569272283,-26.7940737356883],[-60.441791810529,-26.7936821213299],[-60.4429115486849,-26.7932770076599],[-60.4440514794201,-26.7928943845956],[-60.4435998804483,-26.7918443770488],[-60.4431484652081,-26.7908394927055]]]]}},
{"type": "Feature","properties": {"Name": null,"descriptio": null,"timestamp": null,"begin": null,"end": null,"altitudeMo": null,"tessellate": -1,"extrude": 0,"visibility": -1,"drawOrder": null,"icon": null,"DEPTO": "021","COUNT": 104.0,"CIRC_ELECT": 91},"geometry": {"type": "MultiPolygon","coordinates": [[[[-60.4393957054528,-26.7851653737299],[-60.4405204319674,-26.7847692887946],[-60.4400892882808,-26.7837914054624],[-60.4396579956256,-26.7827729081166],[-60.4392065478203,-26.7817409340712],[-60.4387653024275,-26.7807450271903],[-60.4383440713786,-26.7797219814818],[-60.4379128447738,-26.7787125028633],[-60.4374766502576,-26.7777165757248],[-60.4369644809734,-26.7765719670034],[-60.4364775283219,-26.7754453287065],[-60.4360312009705,-26.7744223522984],[-60.4355799060343,-26.7734129272112],[-60.435148848816,-26.7724350262434],[-60.4346974838573,-26.7714030353357],[-60.433602979725,-26.7717854436192],[-60.4331516655594,-26.7707624725111],[-60.4327205538706,-26.7697620008703],[-60.4322845251977,-26.7687886180848],[-60.4319246446167,-26.7680090419346],[-60.4316711053457,-26.7674322062608],[-60.4315239555406,-26.7670716492559],[-60.4313363515841,-26.7666480392941],[-60.4311233072113,-26.7661432802676],[-60.4308240905646,-26.7654492550889],[-60.430479260647,-26.7646560912707],[-60.4301598761846,-26.76394407546],[-60.4282688894592,-26.7596989621633],[-60.424527772476,-26.7512671897159],[-60.418808153529,-26.7533022002742],[-60.419761957191,-26.7554004241761],[-60.4207996674692,-26.7577368079812],[-60.4225242735127,-26.7615868474863],[-60.4225495487,-26.761640796175],[-60.4225737836094,-26.7616951996577],[-60.422824757301,-26.7622308874629],[-60.4233604077908,-26.7634362699205],[-60.4238962356614,-26.7646863525186],[-60.4251355357523,-26.7676181366644],[-60.4261710272985,-26.770025526628],[-60.426500661346,-26.7707916708072],[-60.4269519332277,-26.7718191763173],[-60.4274081393197,-26.7728195899153],[-60.4278341385319,-26.7738065553555],[-60.4282652742073,-26.7748205791509],[-60.4287014790128,-26.7758436112042],[-60.4291426683668,-26.7768530889245],[-60.4295687150508,-26.777844560737],[-60.4300758058727,-26.7789937245805],[-60.4305778283272,-26.7801293640671],[-60.4310140065827,-26.7811343377302],[-60.4314501585122,-26.7821302848105],[-60.4318964249639,-26.7831397371665],[-60.432332712155,-26.7841672685704],[-60.4327638083067,-26.7851496887474],[-60.4332101156584,-26.7861636487528],[-60.4336213039375,-26.7871957648488],[-60.4348916750259,-26.7867451278373],[-60.4360264545604,-26.786340022425],[-60.4371662884017,-26.785943917474],[-60.4383011036599,-26.7855523314786],[-60.4393957054528,-26.7851653737299]]]]}},
{"type": "Feature","properties": {"Name": null,"descriptio": null,"timestamp": null,"begin": null,"end": null,"altitudeMo": null,"tessellate": -1,"extrude": 0,"visibility": -1,"drawOrder": null,"icon": null,"DEPTO": "021","COUNT": 213.0,"CIRC_ELECT": 92},"geometry": {"type": "MultiPolygon","coordinates": [[[[-60.4450243217595,-26.7831938696883],[-60.4461490263658,-26.7828022529287],[-60.447278768562,-26.7824151239337],[-60.44874059635613,-26.781914122003357],[-60.44855840957018,-26.781467248754797],[-60.44828684813452,-26.78084850117987],[-60.44787434975123,-26.779910067357903],[-60.44774716274972,-26.779580068651278],[-60.44755122601766,-26.779177882727573],[-60.44741372655657,-26.778902883805387],[-60.44730372698769,-26.778614134937087],[-60.4469909157137,-26.777906012712446],[-60.44676060411636,-26.777386952246815],[-60.44651998005945,-26.776861016808127],[-60.44607998178393,-26.775829770849917],[-60.44570529575246,-26.774953211785434],[-60.44563768175535,-26.774825797637234],[-60.44540967191111,-26.77434133918356],[-60.44527904742307,-26.774007902990405],[-60.445113059998,-26.7737172315309],[-60.4449805898186,-26.7732663920592],[-60.4446761724526,-26.7725543638684],[-60.44458986475,-26.7723380319874],[-60.444229889071,-26.7715584886437],[-60.443793562793,-26.770535505275],[-60.4436718574563,-26.7702651328985],[-60.44334219797,-26.7695215925076],[-60.4431391495538,-26.7690168210097],[-60.4429515344456,-26.7686022521146],[-60.4429109498034,-26.7685076152159],[-60.442773957456,-26.7681831390137],[-60.4426877792263,-26.7679983932903],[-60.4424545914641,-26.7674982273521],[-60.4422364520173,-26.7669889888998],[-60.4422111070058,-26.7669349172585],[-60.442013322435,-26.7664887907422],[-60.4418052409839,-26.7659795201498],[-60.4415920820751,-26.7654567273336],[-60.4412979355893,-26.7647897843391],[-60.4404659946786,-26.7628429449752],[-60.4404254316052,-26.7627528197472],[-60.4401265852334,-26.7621671147017],[-60.4393862246056,-26.7604952500466],[-60.4391531190832,-26.7600086153192],[-60.4389451319246,-26.7595173898125],[-60.4387269545062,-26.7589900949557],[-60.4385139270767,-26.7584943717445],[-60.4382907789309,-26.7579806291835],[-60.4380625715675,-26.7574578767139],[-60.4378394448298,-26.7569486458328],[-60.4375960581424,-26.7563988639669],[-60.4338996043564,-26.7479672023089],[-60.424527772476,-26.7512671897159],[-60.4282688894593,-26.7596989621633],[-60.4301598761846,-26.76394407546],[-60.4304792606471,-26.7646560912707],[-60.4308240905646,-26.7654492550889],[-60.4311233072113,-26.7661432802676],[-60.4313363515841,-26.7666480392941],[-60.4315239555406,-26.7670716492559],[-60.4316711053457,-26.7674322062608],[-60.4319246446167,-26.7680090419346],[-60.4322845251977,-26.7687886180849],[-60.4327205538706,-26.7697620008703],[-60.4331516655594,-26.7707624725111],[-60.433602979725,-26.7717854436192],[-60.4346974838573,-26.7714030353357],[-60.435148848816,-26.7724350262434],[-60.4355799060343,-26.7734129272112],[-60.4360312009705,-26.7744223522984],[-60.4364775283219,-26.7754453287065],[-60.4369644809734,-26.7765719670034],[-60.4374766502576,-26.7777165757248],[-60.4379128447738,-26.7787125028633],[-60.4383440713786,-26.7797219814818],[-60.4387653024275,-26.7807450271903],[-60.4392065478203,-26.7817409340712],[-60.4396579956256,-26.7827729081166],[-60.4400892882808,-26.7837914054624],[-60.4405204319674,-26.7847692887946],[-60.441655293546,-26.7843957261288],[-60.4427799343602,-26.7839815734209],[-60.443909647352,-26.7835809335892],[-60.4450243217595,-26.7831938696883]]]]}},
{"type": "Feature","properties": {"Name": null,"descriptio": null,"timestamp": null,"begin": null,"end": null,"altitudeMo": null,"tessellate": -1,"extrude": 0,"visibility": -1,"drawOrder": null,"icon": null,"DEPTO": "021","COUNT": 56.0,"CIRC_ELECT": 93},"geometry": {"type": "MultiPolygon","coordinates": [[[[-60.4496753635755,-26.7909227099191],[-60.4507850074748,-26.7905220789408],[-60.452224488951636,-26.79001799649163],[-60.45200448981388,-26.789502373512526],[-60.45175355329739,-26.788859563531908],[-60.45135136737367,-26.787979566980905],[-60.45092511904428,-26.786975820914915],[-60.45053840180994,-26.78608379316106],[-60.450435277214126,-26.785853481563723],[-60.45006059118264,-26.784973485012717],[-60.44963778033977,-26.783986926379363],[-60.44918746960469,-26.782948805448097],[-60.44874059635613,-26.781914122003357],[-60.447278768562,-26.7824151239337],[-60.4461490263658,-26.7828022529287],[-60.4450243217595,-26.7831938696883],[-60.443909647352,-26.7835809335892],[-60.4427799343602,-26.7839815734209],[-60.441655293546,-26.7843957261288],[-60.4405204319674,-26.7847692887946],[-60.4409416494346,-26.7857787893534],[-60.4414133109623,-26.7868287441992],[-60.4418396245785,-26.7878517634148],[-60.4422757921,-26.7888205998041],[-60.4427021036158,-26.789839103459],[-60.4431484652081,-26.7908394927055],[-60.4435998804483,-26.7918443770488],[-60.4440514794201,-26.7928943845956],[-60.4451612156548,-26.7925073347694],[-60.4455980509295,-26.792348022084],[-60.4463060708069,-26.7921021154642],[-60.4474257946561,-26.7917014788914],[-60.4485555845308,-26.7913053141808],[-60.4496753635755,-26.7909227099191]]]]}},
{"type": "Feature","properties": {"Name": null,"descriptio": null,"timestamp": null,"begin": null,"end": null,"altitudeMo": null,"tessellate": -1,"extrude": 0,"visibility": -1,"drawOrder": null,"icon": null,"DEPTO": "021","COUNT": 315.0,"CIRC_ELECT": 94},"geometry": {"type": "MultiPolygon","coordinates": [[[[-60.4593916184434,-26.7876289629577],[-60.4605916070659,-26.7872053998584],[-60.461706312814,-26.7868317425974],[-60.4653362933968,-26.7855428157447],[-60.4647667946983,-26.7839788337321],[-60.4610564659158,-26.7852815450134],[-60.4607723184228,-26.7846416885615],[-60.4598387786594,-26.782555414388],[-60.4594378268408,-26.7816226185598],[-60.4590063164764,-26.7805906444186],[-60.4585497847857,-26.779585825002],[-60.4582757211167,-26.7789459301246],[-60.4580067605495,-26.7783240683236],[-60.4576971665839,-26.777598548594],[-60.4574992122815,-26.7771298829072],[-60.4572354505075,-26.7765486155554],[-60.4569919819094,-26.7760124076832],[-60.4566012943236,-26.7751201823755],[-60.4561598884299,-26.7741153053358],[-60.4558604987791,-26.7734213359538],[-60.4555509141636,-26.7726912981975],[-60.4551349333309,-26.7717540239985],[-60.4548863140549,-26.7711817280748],[-60.4546327419648,-26.7706274977489],[-60.4543486860109,-26.7699921386684],[-60.4543784540852,-26.7698927670372],[-60.4548791950383,-26.7693947796863],[-60.4553699313371,-26.7689103603829],[-60.4618091734919,-26.7625448726717],[-60.459881600063,-26.7582371343529],[-60.4506553068885,-26.7614932472958],[-60.4469580417564,-26.7531431713664],[-60.4432106441225,-26.7446848391158],[-60.4338996043564,-26.7479672023089],[-60.4375960581425,-26.7563988639669],[-60.4378394448298,-26.7569486458328],[-60.4380625715675,-26.7574578767139],[-60.4382907789309,-26.7579806291835],[-60.4385139270766,-26.7584943717445],[-60.4387269545062,-26.7589900949557],[-60.4389451319246,-26.7595173898125],[-60.4391531190832,-26.7600086153192],[-60.4393862246056,-26.7604952500466],[-60.4401265852334,-26.7621671147017],[-60.4404254316052,-26.7627528197472],[-60.4404659946786,-26.7628429449752],[-60.4412979355893,-26.7647897843391],[-60.4415920820751,-26.7654567273336],[-60.4418052409838,-26.7659795201498],[-60.442013322435,-26.7664887907422],[-60.4422111070058,-26.7669349172585],[-60.442773957456,-26.7681831390137],[-60.4429109498034,-26.7685076152159],[-60.4429515344456,-26.7686022521146],[-60.4431391495538,-26.7690168210097],[-60.44334219797,-26.7695215925076],[-60.4436718574563,-26.7702651328985],[-60.443793562793,-26.770535505275],[-60.444229889071,-26.7715584886437],[-60.44458986475,-26.7723380319874],[-60.4446761724526,-26.7725543638684],[-60.4449805898186,-26.7732663920592],[-60.445113059998,-26.7737172315309],[-60.44527904742307,-26.774007902990405],[-60.44540967191111,-26.77434133918356],[-60.44563768175535,-26.774825797637234],[-60.44570529575246,-26.774953211785434],[-60.44607998178393,-26.775829770849917],[-60.44651998005945,-26.776861016808127],[-60.44676060411636,-26.777386952246815],[-60.4469909157137,-26.777906012712446],[-60.44730372698769,-26.778614134937087],[-60.44741372655657,-26.778902883805287],[-60.44755122601766,-26.779177882727573],[-60.44774716274972,-26.779580068651278],[-60.44787434975123,-26.779910067357903],[-60.44828684813452,-26.78084850117987],[-60.44855840957018,-26.781467248754797],[-60.44874059635613,-26.781914122003357],[-60.44918746960469,-26.782948805448097],[-60.44963778033977,-26.783986926379363],[-60.45006059118264,-26.784973485012717],[-60.450435277214126,-26.785853481563723],[-60.45053840180994,-26.78608379316106],[-60.45092511904428,-26.786975820914915],[-60.45135136737367,-26.787979566980905],[-60.45175355329739,-26.788859563531908],[-60.45200448981388,-26.789502373512526],[-60.452224488951636,-26.79001799649163],[-60.45227605124955,-26.79014862097967],[-60.4532509691145,-26.789801227676],[-60.4543505151134,-26.7893960886905],[-60.4552593303818,-26.7890772926632],[-60.4561581205499,-26.7887675482063],[-60.4570568153734,-26.7884352356797],[-60.4582317902544,-26.7880388484141],[-60.4593916184434,-26.7876289629577]]]]}},
{"type": "Feature","properties": {"Name": null,"descriptio": null,"timestamp": null,"begin": null,"end": null,"altitudeMo": null,"tessellate": -1,"extrude": 0,"visibility": -1,"drawOrder": null,"icon": null,"DEPTO": "021","COUNT": null,"CIRC_ELECT": 95},"geometry": {"type": "MultiPolygon","coordinates": [[[[-60.6904,-26.916],[-60.6622,-26.8539],[-60.6463,-26.8188],[-60.6288,-26.7803],[-60.6262,-26.7744],[-60.6114,-26.7417],[-60.5635,-26.6359],[-60.4874,-26.6994],[-60.5083,-26.77],[-60.537,-26.8375],[-60.544,-26.8502],[-60.6904,-26.916]]]]}},
{"type": "Feature","properties": {"Name": null,"descriptio": null,"timestamp": null,"begin": null,"end": null,"altitudeMo": null,"tessellate": -1,"extrude": 0,"visibility": -1,"drawOrder": null,"icon": null,"DEPTO": "021","COUNT": null,"CIRC_ELECT": 96},"geometry": {"type": "MultiPolygon","coordinates": [[[[-60.5635,-26.6359],[-60.5496,-26.6052],[-60.5164,-26.5316],[-60.5045,-26.5358],[-60.4887,-26.5415],[-60.3962,-26.5745],[-60.3299,-26.5981],[-60.2407,-26.6299],[-60.2648,-26.685],[-60.3233,-26.7077],[-60.3596,-26.7077],[-60.35,-26.722],[-60.35,-26.748],[-60.407981,-26.7495],[-60.455,-26.748],[-60.46,-26.722],[-60.4586,-26.7031],[-60.4874,-26.6994],[-60.5635,-26.6359]]]]}},
{"type": "Feature","properties": {"Name": null,"descriptio": null,"timestamp": null,"begin": null,"end": null,"altitudeMo": null,"tessellate": -1,"extrude": 0,"visibility": -1,"drawOrder": null,"icon": null,"DEPTO": "021","COUNT": null,"CIRC_ELECT": 97},"geometry": {"type": "MultiPolygon","coordinates": [[[[-60.2949,-26.7538],[-60.3324,-26.8392],[-60.3467,-26.8716],[-60.3677,-26.9194],[-60.4034,-26.873],[-60.3838,-26.8178],[-60.3233,-26.7077],[-60.2648,-26.685],[-60.2675,-26.6912],[-60.2949,-26.7538]]]]}}
]
}
