{"type":"FeatureCollection","generator":"overpass-api / fetch_negocios_osm.py","copyright":"The data included in this document is from www.openstreetmap.org. The data is made available under ODbL.","timestamp":"2026-09-16T22:26:19Z","features":[{"type":"Feature","properties":{"@id":"node/1020772185","name":"","tipo":"amenity=fuel","amenity":"fuel"},"geometry":{"type":"Point","coordinates":[-60.4500468,-26.8041222]},"id":"node/1020772185"},{"type":"Feature","properties":{"@id":"node/1925879751","name":"Modelo","tipo":"amenity=pharmacy","amenity":"pharmacy"},"geometry":{"type":"Point","coordinates":[-60.4317141,-26.7923177]},"id":"node/1925879751"},{"type":"Feature","properties":{"@id":"node/1925882542","name":"Yo Argentino","tipo":"shop=kiosk","shop":"kiosk"},"geometry":{"type":"Point","coordinates":[-60.4386771,-26.7899809]},"id":"node/1925882542"},{"type":"Feature","properties":{"@id":"node/1933026784","name":"Comedor El Faro","tipo":"amenity=restaurant","amenity":"restaurant"},"geometry":{"type":"Point","coordinates":[-60.4173803,-26.8136725]},"id":"node/1933026784"},{"type":"Feature","properties":{"@id":"node/2014269225","name":"Parrilla El Chucaro","tipo":"amenity=restaurant","amenity":"restaurant"},"geometry":{"type":"Point","coordinates":[-60.4352064,-26.7914953]},"id":"node/2014269225"},{"type":"Feature","properties":{"@id":"node/2014269279","name":"Vital","tipo":"amenity=pharmacy","amenity":"pharmacy"},"geometry":{"type":"Point","coordinates":[-60.4356569,-26.7910487]},"id":"node/2014269279"},{"type":"Feature","properties":{"@id":"node/2014269799","name":"Cheek","tipo":"shop=supermarket","shop":"supermarket"},"geometry":{"type":"Point","coordinates":[-60.4183674,-26.8143811]},"id":"node/2014269799"},{"type":"Feature","properties":{"@id":"node/2045257833","name":"Autoservicio El Paso","tipo":"shop=supermarket","shop":"supermarket"},"geometry":{"type":"Point","coordinates":[-60.4317033,-26.7684492]},"id":"node/2045257833"},{"type":"Feature","properties":{"@id":"node/2052952766","name":"Shell","tipo":"amenity=fuel","amenity":"fuel"},"geometry":{"type":"Point","coordinates":[-60.4150817,-26.8127575]},"id":"node/2052952766"},{"type":"Feature","properties":{"@id":"node/2064863990","name":"Maxikiosco Monte Quemado","tipo":"shop=kiosk","shop":"kiosk"},"geometry":{"type":"Point","coordinates":[-60.4318964,-26.7925284]},"id":"node/2064863990"},{"type":"Feature","properties":{"@id":"node/2837728006","name":"Banco de Chaco","tipo":"amenity=bank","amenity":"bank"},"geometry":{"type":"Point","coordinates":[-60.440903,-26.7903736]},"id":"node/2837728006"},{"type":"Feature","properties":{"@id":"node/3805938515","name":"","tipo":"amenity=fuel","amenity":"fuel"},"geometry":{"type":"Point","coordinates":[-60.4383932,-26.785309]},"id":"node/3805938515"},{"type":"Feature","properties":{"@id":"node/3805938516","name":"","tipo":"amenity=fuel","amenity":"fuel"},"geometry":{"type":"Point","coordinates":[-60.4364529,-26.7968553]},"id":"node/3805938516"},{"type":"Feature","properties":{"@id":"node/3958502562","name":"","tipo":"amenity=fuel","amenity":"fuel"},"geometry":{"type":"Point","coordinates":[-60.4422206,-26.7890666]},"id":"node/3958502562"},{"type":"Feature","properties":{"@id":"node/3958502563","name":"","tipo":"amenity=fuel","amenity":"fuel"},"geometry":{"type":"Point","coordinates":[-60.4407894,-26.7918995]},"id":"node/3958502563"},{"type":"Feature","properties":{"@id":"node/3958502564","name":"","tipo":"amenity=fuel","amenity":"fuel"},"geometry":{"type":"Point","coordinates":[-60.4452547,-26.798251]},"id":"node/3958502564"},{"type":"Feature","properties":{"@id":"node/3958502565","name":"","tipo":"amenity=fuel","amenity":"fuel"},"geometry":{"type":"Point","coordinates":[-60.4137525,-26.7984253]},"id":"node/3958502565"},{"type":"Feature","properties":{"@id":"node/3958502566","name":"YPF","tipo":"amenity=fuel","amenity":"fuel"},"geometry":{"type":"Point","coordinates":[-60.4166725,-26.8135915]},"id":"node/3958502566"},{"type":"Feature","properties":{"@id":"node/4216298416","name":"","tipo":"amenity=restaurant","amenity":"restaurant"},"geometry":{"type":"Point","coordinates":[-60.4250343,-26.7861171]},"id":"node/4216298416"},{"type":"Feature","properties":{"@id":"node/4282183092","name":"Ravetti Sandwichería","tipo":"amenity=fast_food","amenity":"fast_food"},"geometry":{"type":"Point","coordinates":[-60.4393523,-26.7822278]},"id":"node/4282183092"},{"type":"Feature","properties":{"@id":"node/4378922702","name":"","tipo":"shop=car_parts","shop":"car_parts"},"geometry":{"type":"Point","coordinates":[-60.4380941,-26.7881261]},"id":"node/4378922702"},{"type":"Feature","properties":{"@id":"node/4379012589","name":"","tipo":"shop=computer","shop":"computer"},"geometry":{"type":"Point","coordinates":[-60.4380557,-26.7879695]},"id":"node/4379012589"},{"type":"Feature","properties":{"@id":"node/4389468990","name":"","tipo":"shop=car_parts","shop":"car_parts"},"geometry":{"type":"Point","coordinates":[-60.4371074,-26.7859493]},"id":"node/4389468990"},{"type":"Feature","properties":{"@id":"node/4518763091","name":"Ibate autopartes","tipo":"shop=car_parts","shop":"car_parts"},"geometry":{"type":"Point","coordinates":[-60.4449915,-26.7949672]},"id":"node/4518763091"},{"type":"Feature","properties":{"@id":"node/4518785089","name":"Motocross repueatos","tipo":"shop=car_parts","shop":"car_parts"},"geometry":{"type":"Point","coordinates":[-60.4449369,-26.7951593]},"id":"node/4518785089"},{"type":"Feature","properties":{"@id":"node/4524183689","name":"FarMar","tipo":"amenity=pharmacy","amenity":"pharmacy"},"geometry":{"type":"Point","coordinates":[-60.4413691,-26.7890254]},"id":"node/4524183689"},{"type":"Feature","properties":{"@id":"node/4619781592","name":"Mc Pizza Libre","tipo":"amenity=fast_food","amenity":"fast_food"},"geometry":{"type":"Point","coordinates":[-60.4432418,-26.7929713]},"id":"node/4619781592"},{"type":"Feature","properties":{"@id":"node/4620010392","name":"Taller de chapa y pintura HÉCTOR TEMPERINI","tipo":"shop=car_repair","shop":"car_repair"},"geometry":{"type":"Point","coordinates":[-60.4484758,-26.8066298]},"id":"node/4620010392"},{"type":"Feature","properties":{"@id":"node/4620022591","name":"Mercado El Tío 22","tipo":"shop=supermarket","shop":"supermarket"},"geometry":{"type":"Point","coordinates":[-60.4517079,-26.8131375]},"id":"node/4620022591"},{"type":"Feature","properties":{"@id":"node/4620057289","name":"","tipo":"shop=greengrocer","shop":"greengrocer"},"geometry":{"type":"Point","coordinates":[-60.4484986,-26.8071149]},"id":"node/4620057289"},{"type":"Feature","properties":{"@id":"node/4620057290","name":"Taller de motos","tipo":"shop=car_repair","shop":"car_repair"},"geometry":{"type":"Point","coordinates":[-60.4489177,-26.8066295]},"id":"node/4620057290"},{"type":"Feature","properties":{"@id":"node/4620057291","name":"","tipo":"shop=greengrocer","shop":"greengrocer"},"geometry":{"type":"Point","coordinates":[-60.4517647,-26.813288]},"id":"node/4620057291"},{"type":"Feature","properties":{"@id":"node/4620057292","name":"Supermercados el Sol","tipo":"shop=supermarket","shop":"supermarket"},"geometry":{"type":"Point","coordinates":[-60.4437012,-26.7954791]},"id":"node/4620057292"},{"type":"Feature","properties":{"@id":"node/4620406691","name":"El León","tipo":"shop=supermarket","shop":"supermarket"},"geometry":{"type":"Point","coordinates":[-60.4454845,-26.7975706]},"id":"node/4620406691"},{"type":"Feature","properties":{"@id":"node/4620518492","name":"Farmacia San Cayetano","tipo":"amenity=pharmacy","amenity":"pharmacy"},"geometry":{"type":"Point","coordinates":[-60.4559269,-26.7973121]},"id":"node/4620518492"},{"type":"Feature","properties":{"@id":"node/4620519690","name":"Panadería Dan Mir","tipo":"shop=bakery","shop":"bakery"},"geometry":{"type":"Point","coordinates":[-60.4448552,-26.7974438]},"id":"node/4620519690"},{"type":"Feature","properties":{"@id":"node/4659051789","name":"Taller gomeria Leonel","tipo":"shop=car_repair","shop":"car_repair"},"geometry":{"type":"Point","coordinates":[-60.4438276,-26.7925317]},"id":"node/4659051789"},{"type":"Feature","properties":{"@id":"node/4674003889","name":"Equipamientos Kennedy","tipo":"shop=outdoor","shop":"outdoor"},"geometry":{"type":"Point","coordinates":[-60.4339649,-26.7918539]},"id":"node/4674003889"},{"type":"Feature","properties":{"@id":"node/4682320789","name":"Visión Informática","tipo":"shop=computer","shop":"computer"},"geometry":{"type":"Point","coordinates":[-60.4395323,-26.7863354]},"id":"node/4682320789"},{"type":"Feature","properties":{"@id":"node/4694350591","name":"Muller y CIA","tipo":"shop=car_parts","shop":"car_parts"},"geometry":{"type":"Point","coordinates":[-60.4424463,-26.7842174]},"id":"node/4694350591"},{"type":"Feature","properties":{"@id":"node/4694352292","name":"Pastas il Tano","tipo":"amenity=fast_food","amenity":"fast_food"},"geometry":{"type":"Point","coordinates":[-60.4429362,-26.7886724]},"id":"node/4694352292"},{"type":"Feature","properties":{"@id":"node/4703911995","name":"Taller Mecanico Pérez","tipo":"shop=car_repair","shop":"car_repair"},"geometry":{"type":"Point","coordinates":[-60.4481551,-26.7719342]},"id":"node/4703911995"},{"type":"Feature","properties":{"@id":"node/4703970191","name":"Verdulería 24 hs","tipo":"shop=greengrocer","shop":"greengrocer"},"geometry":{"type":"Point","coordinates":[-60.4487235,-26.8070878]},"id":"node/4703970191"},{"type":"Feature","properties":{"@id":"node/4970866124","name":"Electrodomecanica Oscar","tipo":"shop=car_repair","shop":"car_repair"},"geometry":{"type":"Point","coordinates":[-60.4267164,-26.7799642]},"id":"node/4970866124"},{"type":"Feature","properties":{"@id":"node/5013112293","name":"La Gran Muralla","tipo":"shop=supermarket","shop":"supermarket"},"geometry":{"type":"Point","coordinates":[-60.4196389,-26.7777291]},"id":"node/5013112293"},{"type":"Feature","properties":{"@id":"node/5210701125","name":"Sin nombre","tipo":"amenity=fast_food","amenity":"fast_food"},"geometry":{"type":"Point","coordinates":[-60.4390801,-26.7945137]},"id":"node/5210701125"},{"type":"Feature","properties":{"@id":"node/5210701126","name":"Sin nombre","tipo":"amenity=fast_food","amenity":"fast_food"},"geometry":{"type":"Point","coordinates":[-60.4391689,-26.7945439]},"id":"node/5210701126"},{"type":"Feature","properties":{"@id":"node/6516268785","name":"Cervezaria Cullen Harrison","tipo":"amenity=bar","amenity":"bar"},"geometry":{"type":"Point","coordinates":[-60.4373131,-26.7952]},"id":"node/6516268785"},{"type":"Feature","properties":{"@id":"node/6625253823","name":"Garbarino","tipo":"shop=electronics","shop":"electronics"},"geometry":{"type":"Point","coordinates":[-60.4391417,-26.7851716]},"id":"node/6625253823"},{"type":"Feature","properties":{"@id":"node/7472431996","name":"","tipo":"shop=computer","shop":"computer"},"geometry":{"type":"Point","coordinates":[-60.4394815,-26.7897397]},"id":"node/7472431996"},{"type":"Feature","properties":{"@id":"node/7472432010","name":"Musimundo","tipo":"shop=electronics","shop":"electronics"},"geometry":{"type":"Point","coordinates":[-60.4417184,-26.7900262]},"id":"node/7472432010"},{"type":"Feature","properties":{"@id":"node/7472432011","name":"Credicoop","tipo":"amenity=bank","amenity":"bank"},"geometry":{"type":"Point","coordinates":[-60.4404253,-26.7885158]},"id":"node/7472432011"},{"type":"Feature","properties":{"@id":"node/7472432012","name":"","tipo":"amenity=atm","amenity":"atm"},"geometry":{"type":"Point","coordinates":[-60.4403855,-26.7885122]},"id":"node/7472432012"},{"type":"Feature","properties":{"@id":"node/7472437609","name":"Banco Nación","tipo":"amenity=bank","amenity":"bank"},"geometry":{"type":"Point","coordinates":[-60.4413715,-26.7901593]},"id":"node/7472437609"},{"type":"Feature","properties":{"@id":"node/7472437610","name":"","tipo":"amenity=atm","amenity":"atm"},"geometry":{"type":"Point","coordinates":[-60.441299,-26.7901949]},"id":"node/7472437610"},{"type":"Feature","properties":{"@id":"node/7472437611","name":"","tipo":"amenity=atm","amenity":"atm"},"geometry":{"type":"Point","coordinates":[-60.4410091,-26.790334]},"id":"node/7472437611"},{"type":"Feature","properties":{"@id":"node/7472437612","name":"Frances","tipo":"amenity=bank","amenity":"bank"},"geometry":{"type":"Point","coordinates":[-60.4400523,-26.7869759]},"id":"node/7472437612"},{"type":"Feature","properties":{"@id":"node/9283241291","name":"Santander","tipo":"amenity=bank","amenity":"bank"},"geometry":{"type":"Point","coordinates":[-60.4429187,-26.7906256]},"id":"node/9283241291"},{"type":"Feature","properties":{"@id":"node/10107392253","name":"","tipo":"amenity=theatre","amenity":"theatre"},"geometry":{"type":"Point","coordinates":[-60.453329,-26.7865324]},"id":"node/10107392253"},{"type":"Feature","properties":{"@id":"node/10288134931","name":"Centro Repuestos","tipo":"shop=car_parts","shop":"car_parts"},"geometry":{"type":"Point","coordinates":[-60.4393481,-26.7816082]},"id":"node/10288134931"},{"type":"Feature","properties":{"@id":"node/10288134933","name":"El Arriero","tipo":"shop=supermarket","shop":"supermarket"},"geometry":{"type":"Point","coordinates":[-60.4367177,-26.7785495]},"id":"node/10288134933"},{"type":"Feature","properties":{"@id":"node/10288134939","name":"El Arriero","tipo":"shop=supermarket","shop":"supermarket"},"geometry":{"type":"Point","coordinates":[-60.4212088,-26.7915374]},"id":"node/10288134939"},{"type":"Feature","properties":{"@id":"node/10288134941","name":"El Arriero","tipo":"shop=supermarket","shop":"supermarket"},"geometry":{"type":"Point","coordinates":[-60.4416841,-26.787027]},"id":"node/10288134941"},{"type":"Feature","properties":{"@id":"node/10572891720","name":"Nexit","tipo":"shop=computer","shop":"computer"},"geometry":{"type":"Point","coordinates":[-60.4389383,-26.7832102]},"id":"node/10572891720"},{"type":"Feature","properties":{"@id":"node/10633136819","name":"Sifer","tipo":"amenity=fuel","amenity":"fuel"},"geometry":{"type":"Point","coordinates":[-60.4046431,-26.8178971]},"id":"node/10633136819"},{"type":"Feature","properties":{"@id":"node/10967898497","name":"DonCar","tipo":"shop=car","shop":"car"},"geometry":{"type":"Point","coordinates":[-60.4526106,-26.8019612]},"id":"node/10967898497"},{"type":"Feature","properties":{"@id":"node/10967942823","name":"El Turquito","tipo":"shop=car_repair","shop":"car_repair"},"geometry":{"type":"Point","coordinates":[-60.4476807,-26.7871759]},"id":"node/10967942823"},{"type":"Feature","properties":{"@id":"node/10967954365","name":"El Arriero","tipo":"shop=wholesale","shop":"wholesale"},"geometry":{"type":"Point","coordinates":[-60.4444081,-26.7945628]},"id":"node/10967954365"},{"type":"Feature","properties":{"@id":"node/11046968865","name":"Audicio","tipo":"shop=car","shop":"car"},"geometry":{"type":"Point","coordinates":[-60.4375696,-26.8051821]},"id":"node/11046968865"},{"type":"Feature","properties":{"@id":"node/11049940674","name":"Cheek","tipo":"shop=wholesale","shop":"wholesale"},"geometry":{"type":"Point","coordinates":[-60.4393565,-26.8045881]},"id":"node/11049940674"},{"type":"Feature","properties":{"@id":"node/11268212769","name":"Walter Automotores","tipo":"shop=car","shop":"car"},"geometry":{"type":"Point","coordinates":[-60.4484589,-26.8048045]},"id":"node/11268212769"},{"type":"Feature","properties":{"@id":"node/11850158088","name":"Megatone","tipo":"shop=electronics","shop":"electronics"},"geometry":{"type":"Point","coordinates":[-60.4389695,-26.7852233]},"id":"node/11850158088"},{"type":"Feature","properties":{"@id":"node/12249238089","name":"El Arriero","tipo":"shop=supermarket","shop":"supermarket"},"geometry":{"type":"Point","coordinates":[-60.4348543,-26.7992651]},"id":"node/12249238089"},{"type":"Feature","properties":{"@id":"node/12390144262","name":"Carnes de Nogueira","tipo":"shop=butcher","shop":"butcher"},"geometry":{"type":"Point","coordinates":[-60.4470892,-26.8038958]},"id":"node/12390144262"},{"type":"Feature","properties":{"@id":"node/12390151861","name":"San Cayetano","tipo":"shop=pet","shop":"pet"},"geometry":{"type":"Point","coordinates":[-60.4291656,-26.8082109]},"id":"node/12390151861"},{"type":"Feature","properties":{"@id":"node/12390164927","name":"Kyoto","tipo":"shop=car","shop":"car"},"geometry":{"type":"Point","coordinates":[-60.4142358,-26.8131778]},"id":"node/12390164927"},{"type":"Feature","properties":{"@id":"node/12425576927","name":"El Arriero","tipo":"shop=supermarket","shop":"supermarket"},"geometry":{"type":"Point","coordinates":[-60.4269882,-26.8101565]},"id":"node/12425576927"},{"type":"Feature","properties":{"@id":"node/12425576928","name":"Vialidad Provincial de Chaco","tipo":"office=government","office":"government"},"geometry":{"type":"Point","coordinates":[-60.423645,-26.8098615]},"id":"node/12425576928"},{"type":"Feature","properties":{"@id":"node/12617960390","name":"Comedor La Tablita","tipo":"amenity=restaurant","amenity":"restaurant"},"geometry":{"type":"Point","coordinates":[-60.4457861,-26.8002911]},"id":"node/12617960390"},{"type":"Feature","properties":{"@id":"node/12734186106","name":"PortofinO","tipo":"amenity=cafe","amenity":"cafe"},"geometry":{"type":"Point","coordinates":[-60.4384772,-26.7900435]},"id":"node/12734186106"},{"type":"Feature","properties":{"@id":"node/12863427554","name":"García","tipo":"shop=electrical","shop":"electrical"},"geometry":{"type":"Point","coordinates":[-60.4446991,-26.7978774]},"id":"node/12863427554"},{"type":"Feature","properties":{"@id":"node/13027053401","name":"Giuseppe","tipo":"amenity=restaurant","amenity":"restaurant"},"geometry":{"type":"Point","coordinates":[-60.4433446,-26.7916425]},"id":"node/13027053401"},{"type":"Feature","properties":{"@id":"node/13168581307","name":"Electromecánica kzryzkek","tipo":"shop=car_repair","shop":"car_repair"},"geometry":{"type":"Point","coordinates":[-60.4310148,-26.8073867]},"id":"node/13168581307"},{"type":"Feature","properties":{"@id":"node/13168581308","name":"Familia Bercomat","tipo":"shop=hardware","shop":"hardware"},"geometry":{"type":"Point","coordinates":[-60.4351094,-26.8057901]},"id":"node/13168581308"},{"type":"Feature","properties":{"@id":"node/13168581309","name":"Driussi Automóviles","tipo":"shop=car","shop":"car"},"geometry":{"type":"Point","coordinates":[-60.4393517,-26.8059143]},"id":"node/13168581309"},{"type":"Feature","properties":{"@id":"node/13168581321","name":"Parra Agropecuaria S.R.L","tipo":"shop=agrarian","shop":"agrarian"},"geometry":{"type":"Point","coordinates":[-60.4407616,-26.8058684]},"id":"node/13168581321"},{"type":"Feature","properties":{"@id":"node/13168581328","name":"Derkay Vargas","tipo":"shop=car","shop":"car"},"geometry":{"type":"Point","coordinates":[-60.4448671,-26.8056393]},"id":"node/13168581328"},{"type":"Feature","properties":{"@id":"node/13168581329","name":"Ferraro","tipo":"shop=agrarian","shop":"agrarian"},"geometry":{"type":"Point","coordinates":[-60.46424,-26.7976299]},"id":"node/13168581329"},{"type":"Feature","properties":{"@id":"node/13168581330","name":"Nordemaq","tipo":"shop=agrarian","shop":"agrarian"},"geometry":{"type":"Point","coordinates":[-60.4683834,-26.7980943]},"id":"node/13168581330"},{"type":"Feature","properties":{"@id":"node/13168581332","name":"YPF Abro","tipo":"shop=fuel","shop":"fuel"},"geometry":{"type":"Point","coordinates":[-60.4680642,-26.7966995]},"id":"node/13168581332"},{"type":"Feature","properties":{"@id":"node/13168581333","name":"Servicap Metalfor","tipo":"shop=car_repair","shop":"car_repair"},"geometry":{"type":"Point","coordinates":[-60.4689903,-26.7963155]},"id":"node/13168581333"},{"type":"Feature","properties":{"@id":"node/13168581382","name":"ACC","tipo":"office=yes","office":"yes"},"geometry":{"type":"Point","coordinates":[-60.4562517,-26.8005378]},"id":"node/13168581382"},{"type":"Feature","properties":{"@id":"node/13278471817","name":"Galicia","tipo":"amenity=bank","amenity":"bank"},"geometry":{"type":"Point","coordinates":[-60.442439,-26.7912855]},"id":"node/13278471817"},{"type":"Feature","properties":{"@id":"node/13624037031","name":"Agrochaco","tipo":"shop=agrarian","shop":"agrarian"},"geometry":{"type":"Point","coordinates":[-60.4379187,-26.8048544]},"id":"node/13624037031"},{"type":"Feature","properties":{"@id":"way/403126327","name":"ACA","tipo":"amenity=fuel","amenity":"fuel"},"geometry":{"type":"Point","coordinates":[-60.4431029,-26.7870455]},"id":"way/403126327"},{"type":"Feature","properties":{"@id":"way/406242465","name":"ChangoMas","tipo":"shop=supermarket","shop":"supermarket"},"geometry":{"type":"Point","coordinates":[-60.4529101,-26.792136]},"id":"way/406242465"},{"type":"Feature","properties":{"@id":"way/411194901","name":"El Arriero","tipo":"shop=supermarket","shop":"supermarket"},"geometry":{"type":"Point","coordinates":[-60.4492359,-26.7714911]},"id":"way/411194901"},{"type":"Feature","properties":{"@id":"way/584441072","name":"Álvarez","tipo":"shop=motorcycle","shop":"motorcycle"},"geometry":{"type":"Point","coordinates":[-60.4402461,-26.7864831]},"id":"way/584441072"}]}
