{
"type": "FeatureCollection",
"name": "policia_comisarias_sp",
"crs": { "type": "name", "properties": { "name": "urn:ogc:def:crs:OGC:1.3:CRS84" } },
"features": [
{ "type": "Feature", "properties": { "Unidad": "CRIA. PRIMERA PCIA. R. SAENZ PEÑA", "Direccion": "Mariano Moreno 944, Localidad Pcia. Roque Saenz Peña", "Coordenada": "-26.7832629,-60.439941", "Latitud": -26.7832629, "Longitud": -60.439941, "correo ele": "pol.cria.1ra.sp@chaco.gob.ar", "telefono": "364-4410237" }, "geometry": { "type": "Point", "coordinates": [ -60.439941, -26.78326290000032 ] } },
{ "type": "Feature", "properties": { "Unidad": "CRIA. QUINTA PCIA. R. SAENZ PEÑA", "Direccion": "Quinta  142 B° San Cayetano, Localidad de Pcia. Roque Saenz Peña", "Coordenada": "-26,815101,-60,435845", "Latitud": -26.81515, "Longitud": -60.43593, "correo ele": "pol.cria.5ta.sp@chaco.gob.ar", "telefono": "364-4438503" }, "geometry": { "type": "Point", "coordinates": [ -60.43593, -26.815150000000322 ] } },
{ "type": "Feature", "properties": { "Unidad": "CRIA. SEGUNDA PCIA. R. SAENZ PEÑA", "Direccion": "Calle lavalle N° 840. entre Calle Azcuenaga y Cte. Fernandez, Pcia. Roque Saenz Peña", "Coordenada": "-26.7972868,-60.4455841", "Latitud": -26.7972868, "Longitud": -60.4455841, "correo ele": "pol.cria.2da.sp@chaco.gob.ar", "telefono": "364-4421260" }, "geometry": { "type": "Point", "coordinates": [ -60.445584100000076, -26.797286800000322 ] } },
{ "type": "Feature", "properties": { "Unidad": "CRIA. SEXTA PCIA. R. SAENZ PEÑA", "Direccion": "Mz. 07 Parcela A B° Nestor Kirchner, Localidad de Pcia Roque Saenz Peña", "Coordenada": "-26.813509,-60.4491548", "Latitud": -26.813509, "Longitud": -60.4491548, "correo ele": "pol.cria.6ta.sp@chaco.gob.ar", "telefono": "3644-438653" }, "geometry": { "type": "Point", "coordinates": [ -60.44915480000008, -26.81350900000032 ] } },
{ "type": "Feature", "properties": { "Unidad": "CRIA. TERCERA PCIA. R. SAENZ PEÑA", "Direccion": "B° 7130 Vivi. Mz. 140 Pc. 1 y 2, Pcia. Roque Saenz Peña", "Coordenada": "-26.790970, -60.417585", "Latitud": -26.79097, "Longitud": -60.417585, "correo ele": "pol.cria.3ra.sp@chaco.gob.ar", "telefono": "364-4422070" }, "geometry": { "type": "Point", "coordinates": [ -60.417585, -26.790970000000314 ] } }
]
}
