{
"type": "FeatureCollection",
"name": "mesas_electores_x_escuelas_amgr",
"crs": { "type": "name", "properties": { "name": "urn:ogc:def:crs:OGC:1.3:CRS84" } },
"features": [
{ "type": "Feature", "properties": { "gid": 38284, "cueanexo": "220007100", "localidad": "PUERTO VILELAS", "nombre": "E.E.P. Nº 45 - DR. PEDRO JOSE FRESCHI", "vot_2019": 84, "cn_mesas": 2, "electores": 429, "circuito": "27" }, "geometry": { "type": "MultiPoint", "coordinates": [ [ -59.003673944502303, -27.518580789411999 ] ] } },
{ "type": "Feature", "properties": { "gid": 38158, "cueanexo": "220000200", "localidad": "RESISTENCIA", "nombre": "E.E.P. Nº   50 -MARCIANO LUIS OJEDA-", "vot_2019": 24, "cn_mesas": 8, "electores": 2790, "circuito": "13B" }, "geometry": { "type": "MultiPoint", "coordinates": [ [ -59.003187042930328, -27.485543833020877 ] ] } },
{ "type": "Feature", "properties": { "gid": 38173, "cueanexo": "220000600", "localidad": "BARRANQUERAS", "nombre": "E.E.S. Nº 85 - EVA DUARTE (ENS Nº 85)", "vot_2019": 118, "cn_mesas": 8, "electores": 2768, "circuito": "11B" }, "geometry": { "type": "MultiPoint", "coordinates": [ [ -58.962365338352356, -27.495685833443012 ] ] } },
{ "type": "Feature", "properties": { "gid": 38174, "cueanexo": "220000700", "localidad": "BARRANQUERAS", "nombre": "E.E.P. Nº 626 - PRESIDENTE HIPOLITO YRIGOYEN", "vot_2019": 91, "cn_mesas": 7, "electores": 2450, "circuito": "11A" }, "geometry": { "type": "MultiPoint", "coordinates": [ [ -58.944285845494036, -27.480553036757833 ] ] } },
{ "type": "Feature", "properties": { "gid": 38175, "cueanexo": "220000800", "localidad": "BARRANQUERAS", "nombre": "E.E.P. Nº 606 - PAULA A.DE SARMIENTO", "vot_2019": 26, "cn_mesas": 8, "electores": 2728, "circuito": "10" }, "geometry": { "type": "MultiPoint", "coordinates": [ [ -58.926926177760734, -27.48317819193203 ] ] } },
{ "type": "Feature", "properties": { "gid": 38194, "cueanexo": "220001400", "localidad": "BARRANQUERAS", "nombre": "E.E.P. Nº 30 - SAN MARTIN", "vot_2019": 20, "cn_mesas": 8, "electores": 2728, "circuito": "10" }, "geometry": { "type": "MultiPoint", "coordinates": [ [ -58.931461730104878, -27.485475795699152 ] ] } },
{ "type": "Feature", "properties": { "gid": 38196, "cueanexo": "220001700", "localidad": "RESISTENCIA", "nombre": "E.E.P. Nº 42 - AMANDA DE GRANDI DE SOLIS", "vot_2019": 81, "cn_mesas": 7, "electores": 2402, "circuito": "1" }, "geometry": { "type": "MultiPoint", "coordinates": [ [ -58.988218726045758, -27.446845299306023 ] ] } },
{ "type": "Feature", "properties": { "gid": 38212, "cueanexo": "220002300", "localidad": "RESISTENCIA", "nombre": "INSTITUTO DE EDUCACION SUPERIOR - SAN FERNANDO REY", "vot_2019": 123, "cn_mesas": 7, "electores": 2392, "circuito": "7A" }, "geometry": { "type": "MultiPoint", "coordinates": [ [ -58.984071947677755, -27.466811151351475 ] ] } },
{ "type": "Feature", "properties": { "gid": 38245, "cueanexo": "220004700", "localidad": "FONTANA", "nombre": "JARDIN DE INFANTES Nº 55 - LIBERATO RUIZ MONTERRUBIO", "vot_2019": 127, "cn_mesas": 4, "electores": 1367, "circuito": "23" }, "geometry": { "type": "MultiPoint", "coordinates": [ [ -59.048171579075991, -27.40852450880146 ] ] } },
{ "type": "Feature", "properties": { "gid": 38249, "cueanexo": "220005100", "localidad": "RESISTENCIA", "nombre": "E.E.P. Nº 737 - LUCIO NORBERTO MANSILLA", "vot_2019": 100, "cn_mesas": 8, "electores": 2741, "circuito": "16B" }, "geometry": { "type": "MultiPoint", "coordinates": [ [ -59.015430442021888, -27.450490814922738 ] ] } },
{ "type": "Feature", "properties": { "gid": 38250, "cueanexo": "220005200", "localidad": "RESISTENCIA", "nombre": "E.E.P. Nº 698 - MARTIN MIGUEL DE GUEMES", "vot_2019": 95, "cn_mesas": 8, "electores": 2745, "circuito": "16B" }, "geometry": { "type": "MultiPoint", "coordinates": [ [ -59.007168490635145, -27.452917982414938 ] ] } },
{ "type": "Feature", "properties": { "gid": 38256, "cueanexo": "220005700", "localidad": "RESISTENCIA", "nombre": "E.E.P. Nº 834 - INDEPENDENCIA", "vot_2019": 104, "cn_mesas": 8, "electores": 2792, "circuito": "13B" }, "geometry": { "type": "MultiPoint", "coordinates": [ [ -58.990082956194769, -27.472569472049717 ] ] } },
{ "type": "Feature", "properties": { "gid": 38266, "cueanexo": "220005900", "localidad": "RESISTENCIA", "nombre": "E.E.P. Nº 949 - OSCAR NORBERTO AFFUR", "vot_2019": 110, "cn_mesas": 8, "electores": 2791, "circuito": "13B" }, "geometry": { "type": "MultiPoint", "coordinates": [ [ -59.003553545061997, -27.477702935294658 ] ] } },
{ "type": "Feature", "properties": { "gid": 38267, "cueanexo": "220006000", "localidad": "RESISTENCIA", "nombre": "E.E.S. Nº 11 - PROF. LINO TORRES (CEP 11)", "vot_2019": 37, "cn_mesas": 8, "electores": 2743, "circuito": "5A" }, "geometry": { "type": "MultiPoint", "coordinates": [ [ -58.979544500192425, -27.44426658616042 ] ] } },
{ "type": "Feature", "properties": { "gid": 38276, "cueanexo": "220006400", "localidad": "RESISTENCIA", "nombre": "E.E.P. Nº 73 - COLONIZADORES FRIULANOS", "vot_2019": 99, "cn_mesas": 8, "electores": 2607, "circuito": "17" }, "geometry": { "type": "MultiPoint", "coordinates": [ [ -59.000005452224229, -27.438452800672035 ] ] } },
{ "type": "Feature", "properties": { "gid": 38280, "cueanexo": "220006800", "localidad": "RESISTENCIA", "nombre": "JARDIN DE INFANTES Nº 46 - BALDOMERO FERNANDEZ MORENO", "vot_2019": 126, "cn_mesas": 3, "electores": 1034, "circuito": "8B" }, "geometry": { "type": "MultiPoint", "coordinates": [ [ -58.955126751694849, -27.476310076090126 ] ] } },
{ "type": "Feature", "properties": { "gid": 38286, "cueanexo": "220007400", "localidad": "RESISTENCIA", "nombre": "U.E.G.P Nº 27 (UEP Nº 27) EMILIO LAMARCA", "vot_2019": 140, "cn_mesas": 6, "electores": 2086, "circuito": "5B" }, "geometry": { "type": "MultiPoint", "coordinates": [ [ -58.966182729531909, -27.453045776723734 ] ] } },
{ "type": "Feature", "properties": { "gid": 38306, "cueanexo": "220008200", "localidad": "BARRANQUERAS", "nombre": "E.E.P. Nº 345 - ALTE.GUILLERMO BROWN", "vot_2019": 77, "cn_mesas": 8, "electores": 2736, "circuito": "9" }, "geometry": { "type": "MultiPoint", "coordinates": [ [ -58.932544308834807, -27.471245254309629 ] ] } },
{ "type": "Feature", "properties": { "gid": 38307, "cueanexo": "220008300", "localidad": "BARRANQUERAS", "nombre": "E.E.P. Nº 43 - JUAN B. SANCHIS", "vot_2019": 83, "cn_mesas": 8, "electores": 2728, "circuito": "9" }, "geometry": { "type": "MultiPoint", "coordinates": [ [ -58.913802412853471, -27.471719316923863 ] ] } },
{ "type": "Feature", "properties": { "gid": 38309, "cueanexo": "220008600", "localidad": "RESISTENCIA", "nombre": "E.E.S. Nº 75 - JULIO CORTAZAR (ENS Nº 75)", "vot_2019": 49, "cn_mesas": 8, "electores": 2750, "circuito": "15" }, "geometry": { "type": "MultiPoint", "coordinates": [ [ -59.005515658103882, -27.461143983337763 ] ] } },
{ "type": "Feature", "properties": { "gid": 38312, "cueanexo": "220009000", "localidad": "RESISTENCIA", "nombre": "E.E.P. Nº 41 - MAESTRO RICARDO A.IVANCOVICH", "vot_2019": 61, "cn_mesas": 7, "electores": 2354, "circuito": "2" }, "geometry": { "type": "MultiPoint", "coordinates": [ [ -58.981274684300836, -27.449344198725477 ] ] } },
{ "type": "Feature", "properties": { "gid": 38391, "cueanexo": "220014500", "localidad": "RESISTENCIA", "nombre": "E.E.P. Nº 897 - CORONEL FEDERICO DE BRANDSEN", "vot_2019": 108, "cn_mesas": 8, "electores": 2782, "circuito": "8A" }, "geometry": { "type": "MultiPoint", "coordinates": [ [ -58.96935808405167, -27.484987090698624 ] ] } },
{ "type": "Feature", "properties": { "gid": 38499, "cueanexo": "220020000", "localidad": "RESISTENCIA", "nombre": "E.E.E. Nº 7 - JULIA OFELIA CUBILLA", "vot_2019": 10, "cn_mesas": 6, "electores": 2091, "circuito": "16A" }, "geometry": { "type": "MultiPoint", "coordinates": [ [ -59.017036094717213, -27.455935188870665 ] ] } },
{ "type": "Feature", "properties": { "gid": 39144, "cueanexo": "220059200", "localidad": "RESISTENCIA", "nombre": "E.E.P. Nº 700 - MANUEL BELGRANO", "vot_2019": 96, "cn_mesas": 8, "electores": 2789, "circuito": "18" }, "geometry": { "type": "MultiPoint", "coordinates": [ [ -58.997543216945076, -27.433403176285925 ] ] } },
{ "type": "Feature", "properties": { "gid": 39145, "cueanexo": "220059300", "localidad": "RESISTENCIA", "nombre": "E.E.P. Nº 712 - CORONEL MANUEL DORREGO", "vot_2019": 98, "cn_mesas": 7, "electores": 2347, "circuito": "19B" }, "geometry": { "type": "MultiPoint", "coordinates": [ [ -58.977862723688425, -27.424040048243892 ] ] } },
{ "type": "Feature", "properties": { "gid": 39166, "cueanexo": "220060600", "localidad": "RESISTENCIA", "nombre": "U.E.G.P Nº 4 (UEP Nº 4) RAYOS DE LUZ", "vot_2019": 133, "cn_mesas": 7, "electores": 2394, "circuito": "5A" }, "geometry": { "type": "MultiPoint", "coordinates": [ [ -58.970409291084465, -27.443221046513628 ] ] } },
{ "type": "Feature", "properties": { "gid": 39255, "cueanexo": "220066700", "localidad": "RESISTENCIA", "nombre": "E.E.S. Nº 32 - DOMINGO MATHEU (CEP Nº 32)", "vot_2019": 43, "cn_mesas": 8, "electores": 2744, "circuito": "16B" }, "geometry": { "type": "MultiPoint", "coordinates": [ [ -59.015725311845891, -27.451202070128325 ] ] } },
{ "type": "Feature", "properties": { "gid": 39514, "cueanexo": "220084700", "localidad": "RESISTENCIA", "nombre": "E.E.P. Nº 2 - RAUL B.DIAZ", "vot_2019": 69, "cn_mesas": 7, "electores": 2275, "circuito": "3" }, "geometry": { "type": "MultiPoint", "coordinates": [ [ -58.985503385842932, -27.457212530600096 ] ] } },
{ "type": "Feature", "properties": { "gid": 39571, "cueanexo": "220088600", "localidad": "RESISTENCIA", "nombre": "E.E.P. Nº 33 - INDEPENDENCIA", "vot_2019": 21, "cn_mesas": 7, "electores": 2423, "circuito": "11B" }, "geometry": { "type": "MultiPoint", "coordinates": [ [ -58.981791794104815, -27.459034947108364 ] ] } },
{ "type": "Feature", "properties": { "gid": 39573, "cueanexo": "220088800", "localidad": "BARRANQUERAS", "nombre": "U.E.G.P Nº 25 (UEP Nº 25) DON ORIONE", "vot_2019": 139, "cn_mesas": 6, "electores": 2046, "circuito": "9" }, "geometry": { "type": "MultiPoint", "coordinates": [ [ -58.935298521304318, -27.481532556935161 ] ] } },
{ "type": "Feature", "properties": { "gid": 39574, "cueanexo": "220088900", "localidad": "RESISTENCIA", "nombre": "E.E.S. Nº 54 - PABLO RICCHIERI (CEP Nº 54)", "vot_2019": 3, "cn_mesas": 8, "electores": 2783, "circuito": "8A" }, "geometry": { "type": "MultiPoint", "coordinates": [ [ -58.958740997118674, -27.476160918888052 ] ] } },
{ "type": "Feature", "properties": { "gid": 39578, "cueanexo": "220089200", "localidad": "BARRANQUERAS", "nombre": "E.E.P. Nº 422 - CONSTANCIO C. VIGIL", "vot_2019": 22, "cn_mesas": 7, "electores": 2390, "circuito": "10" }, "geometry": { "type": "MultiPoint", "coordinates": [ [ -58.936839668674338, -27.484451458462114 ] ] } },
{ "type": "Feature", "properties": { "gid": 39581, "cueanexo": "220089500", "localidad": "BARRANQUERAS", "nombre": "U.E.G.P Nº 6 (UEP Nº 6) FUNDACION - DOCTOR ARISTIDES OMAR GINESTA", "vot_2019": 134, "cn_mesas": 6, "electores": 2046, "circuito": "10" }, "geometry": { "type": "MultiPoint", "coordinates": [ [ -58.928947889507953, -27.488028142089213 ] ] } },
{ "type": "Feature", "properties": { "gid": 39582, "cueanexo": "220089600", "localidad": "RESISTENCIA", "nombre": "E.E.S. Nº 45 - HEROES DEL ATLANTICO SUR (ENS Nº 45)", "vot_2019": 34, "cn_mesas": 7, "electores": 2441, "circuito": "5B" }, "geometry": { "type": "MultiPoint", "coordinates": [ [ -58.978984131865019, -27.458495528789573 ] ] } },
{ "type": "Feature", "properties": { "gid": 39583, "cueanexo": "220089700", "localidad": "RESISTENCIA", "nombre": "E.E.T. Nº 24 - SIMON DE IRIONDO", "vot_2019": 59, "cn_mesas": 8, "electores": 2784, "circuito": "6" }, "geometry": { "type": "MultiPoint", "coordinates": [ [ -58.978714443486012, -27.457512814230594 ] ] } },
{ "type": "Feature", "properties": { "gid": 39597, "cueanexo": "220090000", "localidad": "RESISTENCIA", "nombre": "E.E.P. Nº 972 - PROVINCIA DEL CHACO", "vot_2019": 11, "cn_mesas": 8, "electores": 2784, "circuito": "8A" }, "geometry": { "type": "MultiPoint", "coordinates": [ [ -58.975396254730441, -27.487063746718036 ] ] } },
{ "type": "Feature", "properties": { "gid": 39600, "cueanexo": "220090200", "localidad": "RESISTENCIA", "nombre": "E.E.P. Nº 804 - LIDIA M.E.DE ESPINOSA", "vot_2019": 63, "cn_mesas": 7, "electores": 2435, "circuito": "8A" }, "geometry": { "type": "MultiPoint", "coordinates": [ [ -58.976698208196417, -27.478939112936782 ] ] } },
{ "type": "Feature", "properties": { "gid": 39601, "cueanexo": "220090300", "localidad": "RESISTENCIA", "nombre": "E.E.P. Nº 117 - MANUEL SANCHIS", "vot_2019": 67, "cn_mesas": 8, "electores": 2744, "circuito": "13A" }, "geometry": { "type": "MultiPoint", "coordinates": [ [ -58.99163384356428, -27.482960709557378 ] ] } },
{ "type": "Feature", "properties": { "gid": 39602, "cueanexo": "220090400", "localidad": "RESISTENCIA", "nombre": "E.E.P. Nº 944 - 1° GOB. CONST. DEL CHACO FELIPE GALLARDO", "vot_2019": 109, "cn_mesas": 8, "electores": 2751, "circuito": "7B" }, "geometry": { "type": "MultiPoint", "coordinates": [ [ -58.982455601278502, -27.470993827182721 ] ] } },
{ "type": "Feature", "properties": { "gid": 39603, "cueanexo": "220090500", "localidad": "RESISTENCIA", "nombre": "E.E.S. Nº 73 - AUGUSTO GUSTAVO SCHULZ (ENS 73)", "vot_2019": 143, "cn_mesas": 7, "electores": 2387, "circuito": "7A" }, "geometry": { "type": "MultiPoint", "coordinates": [ [ -58.984646936292151, -27.467874480149018 ] ] } },
{ "type": "Feature", "properties": { "gid": 39604, "cueanexo": "220090600", "localidad": "RESISTENCIA", "nombre": "E.E.P. Nº 675 - DR.JUAN JOSE CASTELLI", "vot_2019": 27, "cn_mesas": 7, "electores": 2407, "circuito": "7B" }, "geometry": { "type": "MultiPoint", "coordinates": [ [ -58.979300033492933, -27.469862345004778 ] ] } },
{ "type": "Feature", "properties": { "gid": 39635, "cueanexo": "220092700", "localidad": "FONTANA", "nombre": "E.E.P. Nº 103 - GRAL. ANTONIO DONOVAN", "vot_2019": 64, "cn_mesas": 8, "electores": 2740, "circuito": "22B" }, "geometry": { "type": "MultiPoint", "coordinates": [ [ -59.030330512432485, -27.416013075168635 ] ] } },
{ "type": "Feature", "properties": { "gid": 39636, "cueanexo": "220092800", "localidad": "FONTANA", "nombre": "E.E.P. Nº 6 - SANTIAGO CIMBARO CANELLA", "vot_2019": 88, "cn_mesas": 8, "electores": 2747, "circuito": "23" }, "geometry": { "type": "MultiPoint", "coordinates": [ [ -59.04905300783593, -27.408994199414916 ] ] } },
{ "type": "Feature", "properties": { "gid": 39637, "cueanexo": "220092900", "localidad": "RESISTENCIA", "nombre": "E.E.P. Nº 779 - GENDARMERIA NACIONAL", "vot_2019": 29, "cn_mesas": 6, "electores": 2094, "circuito": "16C" }, "geometry": { "type": "MultiPoint", "coordinates": [ [ -59.016010931450928, -27.436448901825283 ] ] } },
{ "type": "Feature", "properties": { "gid": 39638, "cueanexo": "220093000", "localidad": "RESISTENCIA", "nombre": "E.E.S. Nº 31 - JOSE GERVASIO ARTIGAS (ENS Nº 31)", "vot_2019": 42, "cn_mesas": 8, "electores": 2790, "circuito": "16A" }, "geometry": { "type": "MultiPoint", "coordinates": [ [ -59.015452267214108, -27.45676888407101 ] ] } },
{ "type": "Feature", "properties": { "gid": 39639, "cueanexo": "220093100", "localidad": "FONTANA", "nombre": "E.E.P. Nº 666 - ANTONIA PANIERI DE RIU", "vot_2019": 92, "cn_mesas": 7, "electores": 2416, "circuito": "22A" }, "geometry": { "type": "MultiPoint", "coordinates": [ [ -59.024072300520153, -27.425055753291304 ] ] } },
{ "type": "Feature", "properties": { "gid": 39640, "cueanexo": "220093200", "localidad": "FONTANA", "nombre": "E.E.S. Nº 36 - MARTIN BUBER (ENS Nº 36)", "vot_2019": 115, "cn_mesas": 7, "electores": 2393, "circuito": "22B" }, "geometry": { "type": "MultiPoint", "coordinates": [ [ -59.034892440544581, -27.4206046531304 ] ] } },
{ "type": "Feature", "properties": { "gid": 39641, "cueanexo": "220093300", "localidad": "RESISTENCIA", "nombre": "E.E.P. Nº 3 - ANTARTIDA ARGENTINA", "vot_2019": 73, "cn_mesas": 7, "electores": 2442, "circuito": "16C" }, "geometry": { "type": "MultiPoint", "coordinates": [ [ -58.999469930313154, -27.443809203026891 ] ] } },
{ "type": "Feature", "properties": { "gid": 39642, "cueanexo": "220093400", "localidad": "RESISTENCIA", "nombre": "U.E.G.P Nº 31 (UEP Nº 31) SAN ROQUE", "vot_2019": 141, "cn_mesas": 7, "electores": 2443, "circuito": "16C" }, "geometry": { "type": "MultiPoint", "coordinates": [ [ -58.999613288467842, -27.44482952261389 ] ] } },
{ "type": "Feature", "properties": { "gid": 39643, "cueanexo": "220093500", "localidad": "RESISTENCIA", "nombre": "E.E.S. Nº 33 - JUAN F. QUIROGA (CEP Nº 33)", "vot_2019": 6, "cn_mesas": 8, "electores": 2781, "circuito": "16A" }, "geometry": { "type": "MultiPoint", "coordinates": [ [ -59.011745653254415, -27.459338942824623 ] ] } },
{ "type": "Feature", "properties": { "gid": 39645, "cueanexo": "220093800", "localidad": "RESISTENCIA", "nombre": "E.E.S. Nº 29 - ESTHER MACHICOTE DE DIAZ (CEP Nº 29)", "vot_2019": 41, "cn_mesas": 8, "electores": 2753, "circuito": "13A" }, "geometry": { "type": "MultiPoint", "coordinates": [ [ -58.991501093206281, -27.483485061232301 ] ] } },
{ "type": "Feature", "properties": { "gid": 39646, "cueanexo": "220093900", "localidad": "RESISTENCIA", "nombre": "E.E.P. Nº 596 - FRANCISCO N.DE LAPRIDA", "vot_2019": 33, "cn_mesas": 8, "electores": 2741, "circuito": "13A" }, "geometry": { "type": "MultiPoint", "coordinates": [ [ -58.989350872177653, -27.479761875406002 ] ] } },
{ "type": "Feature", "properties": { "gid": 39653, "cueanexo": "220094200", "localidad": "RESISTENCIA", "nombre": "E.E.P. Nº 242 - OCTAVIO S. PICO", "vot_2019": 70, "cn_mesas": 8, "electores": 2792, "circuito": "13B" }, "geometry": { "type": "MultiPoint", "coordinates": [ [ -58.994272628707115, -27.474966228045023 ] ] } },
{ "type": "Feature", "properties": { "gid": 39654, "cueanexo": "220094300", "localidad": "RESISTENCIA", "nombre": "E.E.S. Nº 76 - COLEGIO NACIONAL JOSE MARIA PAZ (ENS 76)", "vot_2019": 116, "cn_mesas": 7, "electores": 2276, "circuito": "3" }, "geometry": { "type": "MultiPoint", "coordinates": [ [ -58.980935861333421, -27.456515414409122 ] ] } },
{ "type": "Feature", "properties": { "gid": 39656, "cueanexo": "220094500", "localidad": "RESISTENCIA", "nombre": "E.E.P. Nº 969 - MAESTRO RODOLFO ALFREDO DINUBILA", "vot_2019": 113, "cn_mesas": 7, "electores": 2436, "circuito": "18" }, "geometry": { "type": "MultiPoint", "coordinates": [ [ -58.997548307307667, -27.428263551253881 ] ] } },
{ "type": "Feature", "properties": { "gid": 39657, "cueanexo": "220094600", "localidad": "RESISTENCIA", "nombre": "E.E.S. Nº 40 - EXPLORADOR RAMON LISTA (ENS Nº 40)", "vot_2019": 44, "cn_mesas": 7, "electores": 2352, "circuito": "19B" }, "geometry": { "type": "MultiPoint", "coordinates": [ [ -58.974834216596193, -27.425684553097891 ] ] } },
{ "type": "Feature", "properties": { "gid": 39658, "cueanexo": "220094700", "localidad": "RESISTENCIA", "nombre": "E.E.P. Nº 835 - ARMADA ARGENTINA", "vot_2019": 105, "cn_mesas": 7, "electores": 2354, "circuito": "19B" }, "geometry": { "type": "MultiPoint", "coordinates": [ [ -58.974741843986152, -27.425522339793751 ] ] } },
{ "type": "Feature", "properties": { "gid": 39659, "cueanexo": "220094800", "localidad": "RESISTENCIA", "nombre": "E.E.P. Nº  963 -CACIQUE MORENO-", "vot_2019": 112, "cn_mesas": 6, "electores": 2071, "circuito": "21" }, "geometry": { "type": "MultiPoint", "coordinates": [ [ -58.985522965798197, -27.400959674728298 ] ] } },
{ "type": "Feature", "properties": { "gid": 39660, "cueanexo": "220094900", "localidad": "RESISTENCIA", "nombre": "E.E.P. Nº 169 - ROMULO ZABALA", "vot_2019": 68, "cn_mesas": 2, "electores": 668, "circuito": "19A" }, "geometry": { "type": "MultiPoint", "coordinates": [ [ -58.97847726346307, -27.443519434339777 ] ] } },
{ "type": "Feature", "properties": { "gid": 39662, "cueanexo": "220095100", "localidad": "RESISTENCIA", "nombre": "E.E.P. Nº 26 - MIGUEL NAVARRO VIOLA", "vot_2019": 71, "cn_mesas": 8, "electores": 2748, "circuito": "1" }, "geometry": { "type": "MultiPoint", "coordinates": [ [ -58.983833561900475, -27.445219895606222 ] ] } },
{ "type": "Feature", "properties": { "gid": 39671, "cueanexo": "220095900", "localidad": "RESISTENCIA", "nombre": "E.E.P. Nº 400 - SAN FDO.DEL RIO NEGRO", "vot_2019": 80, "cn_mesas": 8, "electores": 2785, "circuito": "16A" }, "geometry": { "type": "MultiPoint", "coordinates": [ [ -59.012279845510321, -27.459771404669443 ] ] } },
{ "type": "Feature", "properties": { "gid": 39681, "cueanexo": "220096200", "localidad": "RESISTENCIA", "nombre": "JARDIN DE INFANTES Nº 112 - OLGA COSSETTINI", "vot_2019": 124, "cn_mesas": 3, "electores": 1032, "circuito": "8B" }, "geometry": { "type": "MultiPoint", "coordinates": [ [ -58.947853221057656, -27.464474261187942 ] ] } },
{ "type": "Feature", "properties": { "gid": 39684, "cueanexo": "220096300", "localidad": "RESISTENCIA", "nombre": "E.E.P. Nº 319 - JUAN MANUEL ROSSI", "vot_2019": 74, "cn_mesas": 8, "electores": 2760, "circuito": "8B" }, "geometry": { "type": "MultiPoint", "coordinates": [ [ -58.955106381125226, -27.47662188185506 ] ] } },
{ "type": "Feature", "properties": { "gid": 39685, "cueanexo": "220096400", "localidad": "RESISTENCIA", "nombre": "E.E.P. Nº 108 - INES MANUELA GARCIA DE MARQUES", "vot_2019": 65, "cn_mesas": 7, "electores": 2414, "circuito": "8B" }, "geometry": { "type": "MultiPoint", "coordinates": [ [ -58.949080257600727, -27.462568230019578 ] ] } },
{ "type": "Feature", "properties": { "gid": 39686, "cueanexo": "220096500", "localidad": "RESISTENCIA", "nombre": "E.E.S. Nº 25 - CACICA MERCEDES DOMINGA (CEP 25)", "vot_2019": 4, "cn_mesas": 7, "electores": 2414, "circuito": "8B" }, "geometry": { "type": "MultiPoint", "coordinates": [ [ -58.949295023239927, -27.462513810472263 ] ] } },
{ "type": "Feature", "properties": { "gid": 39693, "cueanexo": "220096800", "localidad": "BARRANQUERAS", "nombre": "E.E.P. Nº 954 - PRESIDENTE JUAN DOMINGO PERON", "vot_2019": 111, "cn_mesas": 7, "electores": 2429, "circuito": "11B" }, "geometry": { "type": "MultiPoint", "coordinates": [ [ -58.951969756427197, -27.495196371463923 ] ] } },
{ "type": "Feature", "properties": { "gid": 39694, "cueanexo": "220096900", "localidad": "BARRANQUERAS", "nombre": "E.E.S. Nº 61 - DR.ARTURO UMBERTO ILLIA (ENS Nº 61)", "vot_2019": 46, "cn_mesas": 7, "electores": 2427, "circuito": "11B" }, "geometry": { "type": "MultiPoint", "coordinates": [ [ -58.954609220837661, -27.497201846851997 ] ] } },
{ "type": "Feature", "properties": { "gid": 39697, "cueanexo": "220097200", "localidad": "RESISTENCIA", "nombre": "E.E.P. Nº 577 - DEL SESQUICENTENARIO", "vot_2019": 87, "cn_mesas": 7, "electores": 2413, "circuito": "8B" }, "geometry": { "type": "MultiPoint", "coordinates": [ [ -58.968726685214129, -27.463123914930112 ] ] } },
{ "type": "Feature", "properties": { "gid": 39698, "cueanexo": "220097300", "localidad": "RESISTENCIA", "nombre": "E.E.P. Nº 893 - HERMANAS DE LA CARIDAD DE QUEBEC", "vot_2019": 31, "cn_mesas": 8, "electores": 2785, "circuito": "5B" }, "geometry": { "type": "MultiPoint", "coordinates": [ [ -58.962222274870754, -27.457808797077867 ] ] } },
{ "type": "Feature", "properties": { "gid": 39699, "cueanexo": "220097400", "localidad": "BARRANQUERAS", "nombre": "E.E.T. Nº 2 - GRAL. JOSE DE SAN MARTIN (EX-CEP Y TTP 40)", "vot_2019": 58, "cn_mesas": 6, "electores": 2100, "circuito": "11A" }, "geometry": { "type": "MultiPoint", "coordinates": [ [ -58.935978602687172, -27.488084797582246 ] ] } },
{ "type": "Feature", "properties": { "gid": 39708, "cueanexo": "220097700", "localidad": "RESISTENCIA", "nombre": "E.E.P. Nº 116 - GASPAR LUCILO BENAVENTO", "vot_2019": 66, "cn_mesas": 8, "electores": 2756, "circuito": "8B" }, "geometry": { "type": "MultiPoint", "coordinates": [ [ -58.973448067826951, -27.460796716287927 ] ] } },
{ "type": "Feature", "properties": { "gid": 39709, "cueanexo": "220097800", "localidad": "BARRANQUERAS", "nombre": "E.E.S. Nº 72 - ALMIRANTE BROWN (CEP Nº 72)", "vot_2019": 48, "cn_mesas": 7, "electores": 2449, "circuito": "11A" }, "geometry": { "type": "MultiPoint", "coordinates": [ [ -58.936284559749033, -27.488305047951549 ] ] } },
{ "type": "Feature", "properties": { "gid": 39735, "cueanexo": "220100100", "localidad": "RESISTENCIA", "nombre": "E.E.S. Nº 28 - GENERAL LORENZO WINTER (CEP Nº 28)", "vot_2019": 5, "cn_mesas": 7, "electores": 2408, "circuito": "21" }, "geometry": { "type": "MultiPoint", "coordinates": [ [ -59.012931377297896, -27.424278905693239 ] ] } },
{ "type": "Feature", "properties": { "gid": 39736, "cueanexo": "220100200", "localidad": "RESISTENCIA", "nombre": "E.E.E. Nº 2 - TELMA RECA", "vot_2019": 8, "cn_mesas": 7, "electores": 2413, "circuito": "15" }, "geometry": { "type": "MultiPoint", "coordinates": [ [ -59.002648647136041, -27.461562472661114 ] ] } },
{ "type": "Feature", "properties": { "gid": 39737, "cueanexo": "220100300", "localidad": "RESISTENCIA", "nombre": "E.E.P. Nº 343 - COMBATE DE LA VUELTA DE OBLIGADO", "vot_2019": 76, "cn_mesas": 8, "electores": 2783, "circuito": "13B" }, "geometry": { "type": "MultiPoint", "coordinates": [ [ -59.005746978187624, -27.468011837010128 ] ] } },
{ "type": "Feature", "properties": { "gid": 39738, "cueanexo": "220100500", "localidad": "RESISTENCIA", "nombre": "E.E.P. Nº 706 - ESTANISLAO LOPEZ", "vot_2019": 97, "cn_mesas": 8, "electores": 2752, "circuito": "7B" }, "geometry": { "type": "MultiPoint", "coordinates": [ [ -58.972429032288844, -27.47320281498515 ] ] } },
{ "type": "Feature", "properties": { "gid": 39739, "cueanexo": "220100600", "localidad": "RESISTENCIA", "nombre": "E.E.P. Nº 842 - RITA AGOTE DE SUSTAITA", "vot_2019": 106, "cn_mesas": 8, "electores": 2790, "circuito": "8A" }, "geometry": { "type": "MultiPoint", "coordinates": [ [ -58.966850412902275, -27.479119216722779 ] ] } },
{ "type": "Feature", "properties": { "gid": 39740, "cueanexo": "220100700", "localidad": "RESISTENCIA", "nombre": "E.E.P. Nº 942 - CLORINDO OMAR BLANCO", "vot_2019": 32, "cn_mesas": 7, "electores": 2443, "circuito": "13B" }, "geometry": { "type": "MultiPoint", "coordinates": [ [ -59.014638372467928, -27.475971478044979 ] ] } },
{ "type": "Feature", "properties": { "gid": 39741, "cueanexo": "220100800", "localidad": "RESISTENCIA", "nombre": "E.E.S. Nº 83 - DR.ERNESTO GUEVARA DE LA SERNA (ENS 83)", "vot_2019": 117, "cn_mesas": 8, "electores": 2791, "circuito": "13B" }, "geometry": { "type": "MultiPoint", "coordinates": [ [ -59.006365581428867, -27.47400359506851 ] ] } },
{ "type": "Feature", "properties": { "gid": 39744, "cueanexo": "220100900", "localidad": "RESISTENCIA", "nombre": "E.E.P. Nº 784 - BRIG.GRAL.CORNELIO SAAVEDRA", "vot_2019": 30, "cn_mesas": 7, "electores": 2405, "circuito": "21" }, "geometry": { "type": "MultiPoint", "coordinates": [ [ -59.01424907389066, -27.426032083911473 ] ] } },
{ "type": "Feature", "properties": { "gid": 39800, "cueanexo": "220103300", "localidad": "FONTANA", "nombre": "E.E.T. Nº  15", "vot_2019": 56, "cn_mesas": 6, "electores": 2068, "circuito": "22A" }, "geometry": { "type": "MultiPoint", "coordinates": [ [ -59.027111078107772, -27.426268440753759 ] ] } },
{ "type": "Feature", "properties": { "gid": 40169, "cueanexo": "220127000", "localidad": "BARRANQUERAS", "nombre": "E.E.P. Nº 785 - JUAN MORO -", "vot_2019": 102, "cn_mesas": 8, "electores": 2768, "circuito": "11B" }, "geometry": { "type": "MultiPoint", "coordinates": [ [ -58.951911645374793, -27.491717830261575 ] ] } },
{ "type": "Feature", "properties": { "gid": 40170, "cueanexo": "220127100", "localidad": "BARRANQUERAS", "nombre": "E.E.P. Nº 758 - MAR DEL PLATA", "vot_2019": 101, "cn_mesas": 6, "electores": 2094, "circuito": "11A" }, "geometry": { "type": "MultiPoint", "coordinates": [ [ -58.947133679483187, -27.486975814405948 ] ] } },
{ "type": "Feature", "properties": { "gid": 40171, "cueanexo": "220127200", "localidad": "BARRANQUERAS", "nombre": "E.E.P. Nº 433 - MARTIN DE MOUSSY", "vot_2019": 23, "cn_mesas": 7, "electores": 2422, "circuito": "11B" }, "geometry": { "type": "MultiPoint", "coordinates": [ [ -58.940605410538595, -27.493075067199577 ] ] } },
{ "type": "Feature", "properties": { "gid": 40172, "cueanexo": "220127300", "localidad": "RESISTENCIA", "nombre": "E.E.P. Nº 336 - ENRIQUE BANCHS", "vot_2019": 75, "cn_mesas": 8, "electores": 2744, "circuito": "5A" }, "geometry": { "type": "MultiPoint", "coordinates": [ [ -58.970697528864534, -27.446025066997269 ] ] } },
{ "type": "Feature", "properties": { "gid": 40179, "cueanexo": "220128000", "localidad": "RESISTENCIA", "nombre": "E.E.P. Nº 607 - DEL CENTENARIO DE LA CREACION DEL CHACO", "vot_2019": 89, "cn_mesas": 7, "electores": 2343, "circuito": "19A" }, "geometry": { "type": "MultiPoint", "coordinates": [ [ -58.976768208945437, -27.440203813316522 ] ] } },
{ "type": "Feature", "properties": { "gid": 40180, "cueanexo": "220128100", "localidad": "RESISTENCIA", "nombre": "E.E.P. Nº 373 - AMERICA", "vot_2019": 78, "cn_mesas": 8, "electores": 2783, "circuito": "18" }, "geometry": { "type": "MultiPoint", "coordinates": [ [ -58.992557718116316, -27.436117697771461 ] ] } },
{ "type": "Feature", "properties": { "gid": 40185, "cueanexo": "220128500", "localidad": "RESISTENCIA", "nombre": "E.E.P. Nº 62 - CAALTE. VALENTIN FEILBERG", "vot_2019": 90, "cn_mesas": 3, "electores": 976, "circuito": "20" }, "geometry": { "type": "MultiPoint", "coordinates": [ [ -58.936423899240388, -27.423195299343838 ] ] } },
{ "type": "Feature", "properties": { "gid": 40198, "cueanexo": "220129300", "localidad": "RESISTENCIA", "nombre": "E.E.P. Nº 831 - FUERZA AEREA ARGENTINA", "vot_2019": 114, "cn_mesas": 7, "electores": 2408, "circuito": "7B" }, "geometry": { "type": "MultiPoint", "coordinates": [ [ -58.970426529449405, -27.468231305291457 ] ] } },
{ "type": "Feature", "properties": { "gid": 40199, "cueanexo": "220129400", "localidad": "RESISTENCIA", "nombre": "E.E.P. Nº 13 - MINISTRO BENJAMIN VICTORICA", "vot_2019": 62, "cn_mesas": 8, "electores": 2784, "circuito": "8A" }, "geometry": { "type": "MultiPoint", "coordinates": [ [ -58.958482913906266, -27.476416688316178 ] ] } },
{ "type": "Feature", "properties": { "gid": 40200, "cueanexo": "220129500", "localidad": "RESISTENCIA", "nombre": "E.E.S. Nº 60 - GRAL.ANGEL VICENTE PEÑALOZA (ENS Nº 60)", "vot_2019": 45, "cn_mesas": 8, "electores": 2758, "circuito": "15" }, "geometry": { "type": "MultiPoint", "coordinates": [ [ -59.006975071702684, -27.467044969197282 ] ] } },
{ "type": "Feature", "properties": { "gid": 40205, "cueanexo": "220130000", "localidad": "RESISTENCIA", "nombre": "E.E.P. Nº 833 - GERONIMO MATORRAS", "vot_2019": 103, "cn_mesas": 8, "electores": 2787, "circuito": "16A" }, "geometry": { "type": "MultiPoint", "coordinates": [ [ -59.017259490294521, -27.453421424747265 ] ] } },
{ "type": "Feature", "properties": { "gid": 40210, "cueanexo": "220130200", "localidad": "RESISTENCIA", "nombre": "E.E.S. Nº 175 - DR.CARLOS A.BARBERAN (CEP 61)", "vot_2019": 40, "cn_mesas": 7, "electores": 2441, "circuito": "16A" }, "geometry": { "type": "MultiPoint", "coordinates": [ [ -59.036867146933353, -27.451991700768268 ] ] } },
{ "type": "Feature", "properties": { "gid": 40213, "cueanexo": "220130300", "localidad": "RESISTENCIA", "nombre": "E.E.P. Nº 880 - JUSTO P. FARIAS", "vot_2019": 107, "cn_mesas": 8, "electores": 2788, "circuito": "16A" }, "geometry": { "type": "MultiPoint", "coordinates": [ [ -59.018156681822049, -27.459131479223483 ] ] } },
{ "type": "Feature", "properties": { "gid": 40214, "cueanexo": "220130400", "localidad": "RESISTENCIA", "nombre": "E.E.P. Nº 695 - FRAY CAYETANO JOSE RODRIGUEZ", "vot_2019": 28, "cn_mesas": 8, "electores": 2790, "circuito": "16A" }, "geometry": { "type": "MultiPoint", "coordinates": [ [ -59.0355094470289, -27.454648390890945 ] ] } },
{ "type": "Feature", "properties": { "gid": 40218, "cueanexo": "220130800", "localidad": "RESISTENCIA", "nombre": "E.E.T. Nº 16 - 1° DE MAYO (EX-CEP Y TTP Nº 44)", "vot_2019": 57, "cn_mesas": 8, "electores": 2788, "circuito": "16A" }, "geometry": { "type": "MultiPoint", "coordinates": [ [ -59.011489584941678, -27.46044024438217 ] ] } },
{ "type": "Feature", "properties": { "gid": 40252, "cueanexo": "220132700", "localidad": "RESISTENCIA", "nombre": "E.E.P. Nº 383 - MTRA.ENRIQUETA M.DE SOLIMANO", "vot_2019": 79, "cn_mesas": 8, "electores": 2744, "circuito": "16B" }, "geometry": { "type": "MultiPoint", "coordinates": [ [ -59.016747530136065, -27.44278784873034 ] ] } },
{ "type": "Feature", "properties": { "gid": 40254, "cueanexo": "220132900", "localidad": "RESISTENCIA", "nombre": "E.E.P. Nº 54 - EJERCITO ARGENTINO", "vot_2019": 25, "cn_mesas": 8, "electores": 2752, "circuito": "15" }, "geometry": { "type": "MultiPoint", "coordinates": [ [ -58.998467704365439, -27.451713819895303 ] ] } },
{ "type": "Feature", "properties": { "gid": 40255, "cueanexo": "220133000", "localidad": "RESISTENCIA", "nombre": "E.E.E. Nº 5 - DRA. LYDIA F.DE CORIAT", "vot_2019": 9, "cn_mesas": 8, "electores": 2741, "circuito": "16B" }, "geometry": { "type": "MultiPoint", "coordinates": [ [ -59.015110900678174, -27.447757332825656 ] ] } },
{ "type": "Feature", "properties": { "gid": 40256, "cueanexo": "220133100", "localidad": "RESISTENCIA", "nombre": "E.E.P. Nº 274 - GRAL.JOSE DE SAN MARTIN", "vot_2019": 72, "cn_mesas": 7, "electores": 2451, "circuito": "16C" }, "geometry": { "type": "MultiPoint", "coordinates": [ [ -59.007679825478355, -27.44349967039339 ] ] } },
{ "type": "Feature", "properties": { "gid": 40257, "cueanexo": "220133200", "localidad": "RESISTENCIA", "nombre": "E.E.P. Nº 518 - COMANDANTE ANDRESITO", "vot_2019": 86, "cn_mesas": 8, "electores": 2743, "circuito": "16B" }, "geometry": { "type": "MultiPoint", "coordinates": [ [ -59.015476326633177, -27.44800294832099 ] ] } },
{ "type": "Feature", "properties": { "gid": 40258, "cueanexo": "220133300", "localidad": "RESISTENCIA", "nombre": "U.E.G.P Nº 26 (UEP Nº 26) SAN JOSE OBRERO", "vot_2019": 132, "cn_mesas": 8, "electores": 2752, "circuito": "15" }, "geometry": { "type": "MultiPoint", "coordinates": [ [ -59.00033707097856, -27.454678429494134 ] ] } },
{ "type": "Feature", "properties": { "gid": 40356, "cueanexo": "220139800", "localidad": "RESISTENCIA", "nombre": "E.E.P. Nº 1 - BENJAMIN ZORRILLA", "vot_2019": 12, "cn_mesas": 7, "electores": 2330, "circuito": "4" }, "geometry": { "type": "MultiPoint", "coordinates": [ [ -58.987992975811196, -27.450590304223894 ] ] } },
{ "type": "Feature", "properties": { "gid": 40401, "cueanexo": "220142300", "localidad": "RESISTENCIA", "nombre": "E.E.S. Nº 67 - GRAL. DON MANUEL OBLIGADO (CEP Nº 67)", "vot_2019": 47, "cn_mesas": 6, "electores": 1992, "circuito": "14" }, "geometry": { "type": "MultiPoint", "coordinates": [ [ -58.987725437266455, -27.459694231082842 ] ] } },
{ "type": "Feature", "properties": { "gid": 40404, "cueanexo": "220142500", "localidad": "RESISTENCIA", "nombre": "E.E.S. Nº 84 - PEDRO H. UREÑA (CEP Nº 84)", "vot_2019": 50, "cn_mesas": 8, "electores": 2782, "circuito": "8A" }, "geometry": { "type": "MultiPoint", "coordinates": [ [ -58.970186437642269, -27.467607868436872 ] ] } },
{ "type": "Feature", "properties": { "gid": 40432, "cueanexo": "220144500", "localidad": "RESISTENCIA", "nombre": "E.E.P. Nº 423 - YEBRAIL MATTA", "vot_2019": 82, "cn_mesas": 8, "electores": 2789, "circuito": "13B" }, "geometry": { "type": "MultiPoint", "coordinates": [ [ -58.99906080158329, -27.464367719716524 ] ] } },
{ "type": "Feature", "properties": { "gid": 40439, "cueanexo": "220145500", "localidad": "RESISTENCIA", "nombre": "E.E.S. Nº 87 - ESCUELA NORMAL SARMIENTO (ENS Nº 87)", "vot_2019": 119, "cn_mesas": 8, "electores": 2667, "circuito": "4" }, "geometry": { "type": "MultiPoint", "coordinates": [ [ -58.993617673719896, -27.451776689857823 ] ] } },
{ "type": "Feature", "properties": { "gid": 40454, "cueanexo": "220147100", "localidad": "FONTANA", "nombre": "U.E.G.P Nº 72 (UEP Nº 72) ESCUELA BILINGUE INTERC. CACIQUE PELAYO", "vot_2019": 142, "cn_mesas": 5, "electores": 1708, "circuito": "22B" }, "geometry": { "type": "MultiPoint", "coordinates": [ [ -59.033579469059667, -27.421777397013702 ] ] } },
{ "type": "Feature", "properties": { "gid": 40463, "cueanexo": "220147500", "localidad": "FONTANA", "nombre": "E.E.P. Nº 499 - JOSE MARIA TOLEDO", "vot_2019": 85, "cn_mesas": 8, "electores": 2741, "circuito": "22B" }, "geometry": { "type": "MultiPoint", "coordinates": [ [ -59.03495334096079, -27.412474397548774 ] ] } },
{ "type": "Feature", "properties": { "gid": 40472, "cueanexo": "220148600", "localidad": "RESISTENCIA", "nombre": "E.E.S. Nº 88 - LIB. GRAL. SIMON BOLIVAR (ENS Nº 88)", "vot_2019": 51, "cn_mesas": 6, "electores": 1989, "circuito": "14" }, "geometry": { "type": "MultiPoint", "coordinates": [ [ -58.986945414387741, -27.455739018824477 ] ] } },
{ "type": "Feature", "properties": { "gid": 40473, "cueanexo": "220148700", "localidad": "RESISTENCIA", "nombre": "U.E.G.P Nº 73 (UEP Nº 73) IGLESIA DE JESUCRISTO", "vot_2019": 135, "cn_mesas": 6, "electores": 2049, "circuito": "7A" }, "geometry": { "type": "MultiPoint", "coordinates": [ [ -58.984895822107497, -27.465932134254306 ] ] } },
{ "type": "Feature", "properties": { "gid": 40487, "cueanexo": "220150000", "localidad": "RESISTENCIA", "nombre": "JARDIN DE INFANTES Nº 134 - DR. ARTURO LESTANI", "vot_2019": 125, "cn_mesas": 3, "electores": 1043, "circuito": "8A" }, "geometry": { "type": "MultiPoint", "coordinates": [ [ -58.970295805181976, -27.48496012580803 ] ] } },
{ "type": "Feature", "properties": { "gid": 40504, "cueanexo": "220151300", "localidad": "RESISTENCIA", "nombre": "U.E.G.P Nº 78 (UEP Nº 78) FE Y ALEGRIA ARGENTINA", "vot_2019": 136, "cn_mesas": 6, "electores": 2057, "circuito": "13A" }, "geometry": { "type": "MultiPoint", "coordinates": [ [ -58.982734777194928, -27.48056180946703 ] ] } },
{ "type": "Feature", "properties": { "gid": 40513, "cueanexo": "220152300", "localidad": "RESISTENCIA", "nombre": "U.E.G.P Nº 65 (UEP Nº 65) INSTITUTO DE CAPACITACIÓN DOMINGO SAVIO Y TERESITA BRAMBILLA", "vot_2019": 128, "cn_mesas": 4, "electores": 1376, "circuito": "7B" }, "geometry": { "type": "MultiPoint", "coordinates": [ [ -58.97296929490259, -27.473400564362606 ] ] } },
{ "type": "Feature", "properties": { "gid": 40521, "cueanexo": "220153200", "localidad": "RESISTENCIA", "nombre": "E.F.P. Nº 4 - REVERENDO VICTORIANO RODRIGO", "vot_2019": 60, "cn_mesas": 4, "electores": 1391, "circuito": "18" }, "geometry": { "type": "MultiPoint", "coordinates": [ [ -58.998604799320042, -27.436735908082671 ] ] } },
{ "type": "Feature", "properties": { "gid": 40566, "cueanexo": "220158200", "localidad": "BARRANQUERAS", "nombre": "E.E.P. Nº 1014", "vot_2019": 13, "cn_mesas": 6, "electores": 2076, "circuito": "11B" }, "geometry": { "type": "MultiPoint", "coordinates": [ [ -58.96260429057611, -27.508657536083085 ] ] } },
{ "type": "Feature", "properties": { "gid": 40725, "cueanexo": "220173600", "localidad": "RESISTENCIA", "nombre": "U.E.G.P Nº 12 (UEP Nº 12) INSTITUTO PRIVADO CRISTIANO", "vot_2019": 129, "cn_mesas": 6, "electores": 1990, "circuito": "14" }, "geometry": { "type": "MultiPoint", "coordinates": [ [ -58.989555791908096, -27.465409052814135 ] ] } },
{ "type": "Feature", "properties": { "gid": 40781, "cueanexo": "220178502", "localidad": "RESISTENCIA", "nombre": "E.E.S. Nº 68 - MARIA ELENA WALSH (CEP 68)", "vot_2019": 54, "cn_mesas": 6, "electores": 2045, "circuito": "7A" }, "geometry": { "type": "MultiPoint", "coordinates": [ [ -58.992156242874962, -27.469620507190967 ] ] } },
{ "type": "Feature", "properties": { "gid": 40805, "cueanexo": "220181700", "localidad": "RESISTENCIA", "nombre": "E.E.P. Nº 1030 - GOBERNADOR ROY ABELARDO NIKISCH", "vot_2019": 14, "cn_mesas": 8, "electores": 2784, "circuito": "16A" }, "geometry": { "type": "MultiPoint", "coordinates": [ [ -59.029401006711709, -27.455026237346331 ] ] } },
{ "type": "Feature", "properties": { "gid": 40807, "cueanexo": "220181800", "localidad": "FONTANA", "nombre": "E.E.P. Nº 1031 - ALEDO LUIS MELONI", "vot_2019": 15, "cn_mesas": 8, "electores": 2737, "circuito": "23" }, "geometry": { "type": "MultiPoint", "coordinates": [ [ -59.048906025337779, -27.416428846555263 ] ] } },
{ "type": "Feature", "properties": { "gid": 40814, "cueanexo": "220182300", "localidad": "RESISTENCIA", "nombre": "E.E.S. Nº 93 - MEMPO GIARDINELLI (CEP Nº 93)", "vot_2019": 53, "cn_mesas": 7, "electores": 2442, "circuito": "16A" }, "geometry": { "type": "MultiPoint", "coordinates": [ [ -59.030031335667076, -27.455187265829732 ] ] } },
{ "type": "Feature", "properties": { "gid": 40816, "cueanexo": "220182400", "localidad": "FONTANA", "nombre": "E.E.S. Nº 92 - LUISA SEREUL DE MOUSNIER (CEP Nº 92)", "vot_2019": 52, "cn_mesas": 6, "electores": 2061, "circuito": "23" }, "geometry": { "type": "MultiPoint", "coordinates": [ [ -59.048272239331155, -27.415801929752927 ] ] } },
{ "type": "Feature", "properties": { "gid": 40875, "cueanexo": "220187400", "localidad": "FONTANA", "nombre": "E.E.P. Nº 1049 - MADRE TERESA DE CALCUTA", "vot_2019": 16, "cn_mesas": 5, "electores": 1707, "circuito": "22B" }, "geometry": { "type": "MultiPoint", "coordinates": [ [ -59.036113932200074, -27.431274807354885 ] ] } },
{ "type": "Feature", "properties": { "gid": 40908, "cueanexo": "220189500", "localidad": "RESISTENCIA", "nombre": "U.E.G.P Nº 78 (UEP Nº 78) FE Y ALEGRIA ARGENTINA", "vot_2019": 137, "cn_mesas": 5, "electores": 1740, "circuito": "8A" }, "geometry": { "type": "MultiPoint", "coordinates": [ [ -58.982550421146868, -27.480753478066543 ] ] } },
{ "type": "Feature", "properties": { "gid": 41008, "cueanexo": "220198200", "localidad": "RESISTENCIA", "nombre": "E.E.S. Nº 109 - DR. HUGO MITOIRE (CEP 109)", "vot_2019": 36, "cn_mesas": 4, "electores": 1300, "circuito": "17" }, "geometry": { "type": "MultiPoint", "coordinates": [ [ -58.99391072908324, -27.43638245610331 ] ] } },
{ "type": "Feature", "properties": { "gid": 41042, "cueanexo": "220201600", "localidad": "RESISTENCIA", "nombre": "E.E.P. Nº 1056", "vot_2019": 17, "cn_mesas": 6, "electores": 2069, "circuito": "21" }, "geometry": { "type": "MultiPoint", "coordinates": [ [ -58.991061872643044, -27.401477910487543 ] ] } },
{ "type": "Feature", "properties": { "gid": 41045, "cueanexo": "220202000", "localidad": "RESISTENCIA", "nombre": "E.E.P. Nº 1058", "vot_2019": 35, "cn_mesas": 8, "electores": 2760, "circuito": "15" }, "geometry": { "type": "MultiPoint", "coordinates": [ [ -59.006460904655349, -27.461962539183062 ] ] } },
{ "type": "Feature", "properties": { "gid": 41046, "cueanexo": "220202100", "localidad": "BARRANQUERAS", "nombre": "E.E.P. Nº 1059", "vot_2019": 18, "cn_mesas": 6, "electores": 2076, "circuito": "11B" }, "geometry": { "type": "MultiPoint", "coordinates": [ [ -58.959073301325162, -27.496386318536995 ] ] } },
{ "type": "Feature", "properties": { "gid": 41150, "cueanexo": "220209600", "localidad": "BARRANQUERAS", "nombre": "E.E.S. Nº 123 - CRUCERO GENERAL BELGRANO (CEP 123)", "vot_2019": 38, "cn_mesas": 8, "electores": 2731, "circuito": "9" }, "geometry": { "type": "MultiPoint", "coordinates": [ [ -58.932247025285157, -27.470834826801418 ] ] } },
{ "type": "Feature", "properties": { "gid": 41223, "cueanexo": "220214200", "localidad": "RESISTENCIA", "nombre": "E.E.S. Nº 164", "vot_2019": 55, "cn_mesas": 5, "electores": 1719, "circuito": "7B" }, "geometry": { "type": "MultiPoint", "coordinates": [ [ -58.972486350600953, -27.473012432024714 ] ] } },
{ "type": "Feature", "properties": { "gid": 41224, "cueanexo": "220214201", "localidad": "RESISTENCIA", "nombre": "E.E.S. Nº 164", "vot_2019": 1, "cn_mesas": 8, "electores": 2744, "circuito": "13A" }, "geometry": { "type": "MultiPoint", "coordinates": [ [ -58.98915453382039, -27.47982731736575 ] ] } },
{ "type": "Feature", "properties": { "gid": 41322, "cueanexo": "220221600", "localidad": "FONTANA", "nombre": "E.E.P. Nº 1076 - MAESTRO ALBERTO RODOLFO RUHLE", "vot_2019": 19, "cn_mesas": 7, "electores": 2413, "circuito": "22A" }, "geometry": { "type": "MultiPoint", "coordinates": [ [ -59.021102703546759, -27.421235465914283 ] ] } },
{ "type": "Feature", "properties": { "gid": 41336, "cueanexo": "220222700", "localidad": "FONTANA", "nombre": "E.E.S. Nº 172 - CLOTILDE MARÍA BARCO DE OBREGÓN", "vot_2019": 39, "cn_mesas": 6, "electores": 2069, "circuito": "22A" }, "geometry": { "type": "MultiPoint", "coordinates": [ [ -59.020495356974408, -27.421314271495074 ] ] } },
{ "type": "Feature", "properties": { "gid": 41724, "cueanexo": "220250800", "localidad": "RESISTENCIA", "nombre": "U.E.G.P Nº 206", "vot_2019": 130, "cn_mesas": 3, "electores": 973, "circuito": "20" }, "geometry": { "type": "MultiPoint", "coordinates": [ [ -58.94988202880262, -27.418659629698237 ] ] } },
{ "type": "Feature", "properties": { "gid": 41841, "cueanexo": "220261100", "localidad": "RESISTENCIA", "nombre": "U.E.G.P Nº 218 - FUNDACION SARMIENTO", "vot_2019": 131, "cn_mesas": 7, "electores": 2442, "circuito": "16C" }, "geometry": { "type": "MultiPoint", "coordinates": [ [ -59.011084530478463, -27.442753015435294 ] ] } },
{ "type": "Feature", "properties": { "gid": 41999, "cueanexo": "220275600", "localidad": "RESISTENCIA", "nombre": "U.E.G.P Nº 19 (UEP Nº 19) DON BOSCO", "vot_2019": 138, "cn_mesas": 7, "electores": 2352, "circuito": "2" }, "geometry": { "type": "MultiPoint", "coordinates": [ [ -58.9790065, -27.452476 ] ] } },
{ "type": "Feature", "properties": { "gid": 336, "cueanexo": "220177500", "localidad": "RESISTENCIA", "nombre": "INSTITUTO DE EDUCACION SUPERIOR DE FORM. POLICIAL Y SEG. PUBLICA", "vot_2019": 121, "cn_mesas": 4, "electores": 1392, "circuito": "18" }, "geometry": { "type": "MultiPoint", "coordinates": [ [ -58.997718289238577, -27.436080768195541 ] ] } },
{ "type": "Feature", "properties": { "gid": null, "cueanexo": "220087000", "localidad": "COLONIA BARANDA", "nombre": "E.E.P. Nº 68 - DEMETRIO BARANDA", "vot_2019": 93, "cn_mesas": 1, "electores": 18, "circuito": "25" }, "geometry": { "type": "MultiPoint", "coordinates": [ [ -59.305354139971101, -27.5614854596021 ] ] } },
{ "type": "Feature", "properties": { "gid": null, "cueanexo": "220127400", "localidad": "RESISTENCIA", "nombre": "INSTITUTO DE EDUCACION SUPERIOR DE EDUCACION FISICA", "vot_2019": 122, "cn_mesas": 6, "electores": 2011, "circuito": "19A" }, "geometry": { "type": "MultiPoint", "coordinates": [ [ -58.984873555551999, -27.4392085065729 ] ] } },
{ "type": "Feature", "properties": { "gid": null, "cueanexo": "220244200", "localidad": "FONTANA", "nombre": "E.E.S. Nº 193 \"MAESTRA FULVIA ESPINDOLA de DELLAMEA\"", "vot_2019": 120, "cn_mesas": 7, "electores": 2403, "circuito": "23" }, "geometry": { "type": "MultiPoint", "coordinates": [ [ -59.045304488387465, -27.402545636245243 ] ] } },
{ "type": "Feature", "properties": { "gid": null, "cueanexo": "221111111", "localidad": "RESISTENCIA", "nombre": "ANEXO UTN FRR", "vot_2019": 2, "cn_mesas": 6, "electores": 2052, "circuito": "5A" }, "geometry": { "type": "MultiPoint", "coordinates": [ [ -58.975443576696819, -27.447834967029397 ] ] } },
{ "type": "Feature", "properties": { "gid": null, "cueanexo": "221111112", "localidad": "RESISTENCIA", "nombre": "CLUB ATLETICO FOR EVER", "vot_2019": 7, "cn_mesas": 6, "electores": 2086, "circuito": "8A" }, "geometry": { "type": "MultiPoint", "coordinates": [ [ -58.966508803344979, -27.469219115703233 ] ] } }
]
}
